{
  "type": "FeatureCollection",
  "features": [
    {
      "type": "Feature",
      "properties": {
        "id": "pt_1",
        "station": "Sudirman",
        "type": "gerai",
        "label": "Kios atas 1"
      },
      "geometry": {
        "type": "Point",
        "coordinates": [
          106.8236287,
          -6.2024901
        ]
      }
    },
    {
      "type": "Feature",
      "properties": {
        "id": "pt_2",
        "station": "Sudirman",
        "type": "gerai",
        "label": "Kios atas 2"
      },
      "geometry": {
        "type": "Point",
        "coordinates": [
          106.8235871,
          -6.2024691
        ]
      }
    },
    {
      "type": "Feature",
      "properties": {
        "id": "pt_3",
        "station": "Sudirman",
        "type": "gerai",
        "label": "Kios atas 3"
      },
      "geometry": {
        "type": "Point",
        "coordinates": [
          106.82346,
          -6.2024697
        ]
      }
    },
    {
      "type": "Feature",
      "properties": {
        "id": "pt_4",
        "station": "Sudirman",
        "type": "entrance",
        "label": "Pintu bawah utama"
      },
      "geometry": {
        "type": "Point",
        "coordinates": [
          106.82318166742444,
          -6.202267977330985
        ]
      }
    },
    {
      "type": "Feature",
      "properties": {
        "id": "pt_5",
        "station": "Sudirman",
        "type": "entrance",
        "label": "Pintu bawah belakang"
      },
      "geometry": {
        "type": "Point",
        "coordinates": [
          106.8246451141926,
          -6.20262664463407
        ]
      }
    },
    {
      "type": "Feature",
      "properties": {
        "id": "pt_6",
        "station": "Manggarai",
        "type": "gerai",
        "label": "FamilyMart"
      },
      "geometry": {
        "type": "Point",
        "coordinates": [
          106.8502918,
          -6.2102422
        ]
      }
    },
    {
      "type": "Feature",
      "properties": {
        "id": "pt_7",
        "station": "Manggarai",
        "type": "gerai",
        "label": "Indomaret"
      },
      "geometry": {
        "type": "Point",
        "coordinates": [
          106.8502013,
          -6.2100029
        ]
      }
    },
    {
      "type": "Feature",
      "properties": {
        "id": "pt_8",
        "station": "Manggarai",
        "type": "potensi_toko",
        "label": "Potensi toko 1"
      },
      "geometry": {
        "type": "Point",
        "coordinates": [
          106.8506663,
          -6.2102975
        ]
      }
    },
    {
      "type": "Feature",
      "properties": {
        "id": "pt_9",
        "station": "Manggarai",
        "type": "potensi_toko",
        "label": "Potensi toko 2"
      },
      "geometry": {
        "type": "Point",
        "coordinates": [
          106.8508145,
          -6.2104435
        ]
      }
    },
    {
      "type": "Feature",
      "properties": {
        "id": "pt_10",
        "station": "Manggarai",
        "type": "potensi_toko",
        "label": "Potensi toko 3"
      },
      "geometry": {
        "type": "Point",
        "coordinates": [
          106.8507756,
          -6.2105242
        ]
      }
    },
    {
      "type": "Feature",
      "properties": {
        "id": "pt_11",
        "station": "Manggarai",
        "type": "potensi_toko",
        "label": "Potensi toko 4"
      },
      "geometry": {
        "type": "Point",
        "coordinates": [
          106.8508085,
          -6.2104545
        ]
      }
    },
    {
      "type": "Feature",
      "properties": {
        "id": "pt_12",
        "station": "Manggarai",
        "type": "potensi_toko",
        "label": "Potensi toko 5"
      },
      "geometry": {
        "type": "Point",
        "coordinates": [
          106.8508356,
          -6.2105015
        ]
      }
    },
    {
      "type": "Feature",
      "properties": {
        "id": "pt_13",
        "station": "Manggarai",
        "type": "ruko",
        "label": "Ruko depan 1"
      },
      "geometry": {
        "type": "Point",
        "coordinates": [
          106.8502965,
          -6.2097402
        ]
      }
    },
    {
      "type": "Feature",
      "properties": {
        "id": "pt_14",
        "station": "Manggarai",
        "type": "ruko",
        "label": "Ruko depan 2"
      },
      "geometry": {
        "type": "Point",
        "coordinates": [
          106.8504967,
          -6.2096379
        ]
      }
    },
    {
      "type": "Feature",
      "properties": {
        "id": "pt_15",
        "station": "Manggarai",
        "type": "ruko",
        "label": "Ruko depan 3"
      },
      "geometry": {
        "type": "Point",
        "coordinates": [
          106.8510737,
          -6.2100542
        ]
      }
    },
    {
      "type": "Feature",
      "properties": {
        "id": "pt_16",
        "station": "Sudirman",
        "type": "entrance",
        "label": "Pintu atas"
      },
      "geometry": {
        "type": "Point",
        "coordinates": [
          106.82357353948973,
          -6.202413019184441
        ]
      }
    },
    {
      "type": "Feature",
      "properties": {
        "id": "pt_17",
        "station": "Manggarai",
        "type": "entrance",
        "label": "Pintu bawah"
      },
      "geometry": {
        "type": "Point",
        "coordinates": [
          106.85021581782942,
          -6.209898745923517
        ]
      }
    },
    {
      "type": "Feature",
      "properties": {
        "id": "pt_18",
        "station": "Manggarai",
        "type": "entrance",
        "label": "Pintu atas"
      },
      "geometry": {
        "type": "Point",
        "coordinates": [
          106.8492864593219,
          -6.210112908837247
        ]
      }
    },
    {
      "type": "Feature",
      "properties": {
        "id": "pt_19",
        "station": "Sudirman",
        "type": "gerai",
        "label": "Lawson"
      },
      "geometry": {
        "type": "Point",
        "coordinates": [
          106.82327222163873,
          -6.20234887272958
        ]
      }
    },
    {
      "type": "Feature",
      "properties": {
        "id": "pt_20",
        "station": "Sudirman",
        "type": "gerai",
        "label": "Bakso Malang St. Oasis"
      },
      "geometry": {
        "type": "Point",
        "coordinates": [
          106.82363378478033,
          -6.202451402365541
        ]
      }
    },
    {
      "type": "Feature",
      "properties": {
        "id": "pt_21",
        "station": "Sudirman",
        "type": "gerai",
        "label": "Roti'O"
      },
      "geometry": {
        "type": "Point",
        "coordinates": [
          106.8234943110981,
          -6.202464736463842
        ]
      }
    },
    {
      "type": "Feature",
      "properties": {
        "id": "pt_22",
        "station": "Sudirman",
        "type": "gerai",
        "label": "Indomaret Point"
      },
      "geometry": {
        "type": "Point",
        "coordinates": [
          106.823402445441,
          -6.202379408195747
        ]
      }
    },
    {
      "type": "Feature",
      "properties": {
        "id": "pt_23",
        "station": "Sudirman",
        "type": "gerai",
        "label": "Teh Kotjok"
      },
      "geometry": {
        "type": "Point",
        "coordinates": [
          106.82338501108275,
          -6.202438738008624
        ]
      }
    },
    {
      "type": "Feature",
      "properties": {
        "id": "pt_24",
        "station": "Sudirman",
        "type": "gerai",
        "label": "Siliwangi Bolu Kukus Stasiun"
      },
      "geometry": {
        "type": "Point",
        "coordinates": [
          106.82363311541205,
          -6.202406073281017
        ]
      }
    }
  ]
}
