{"type":"FeatureCollection","_meta":{"what":"POI within 800 m of Manggarai/Sudirman, per category — frozen from MAPID Data Premium for public WebGIS","source":"GEO MAPID project 6a7c39a75c1a774d47489a8b","generated":"2026-09-13","count":218},"features":[{"type":"Feature","geometry":{"type":"Point","coordinates":[106.824237,-6.197875]},"properties":{"station":"Sudirman","category":"makanan_minuman","nama":"1/15 COFFEE MENTENG","alamat":"JL. DR. KUSUMA ATMAJA NO.79, RT.10/RW.4, MENTENG, KEC. MENTENG, KOTA JAKARTA PUSAT, DAERAH KHUSUS IBUKOTA JAKARTA 10310","dist_m":510}},{"type":"Feature","geometry":{"type":"Point","coordinates":[106.822263,-6.2]},"properties":{"station":"Sudirman","category":"makanan_minuman","nama":"DANTE COFFEE","alamat":"JL. SUNGAI GERONG NO.2A, RT.10/RW.20, KB. MELATI, KECAMATAN TANAH ABANG, KOTA JAKARTA PUSAT, DAERAH KHUSUS IBUKOTA JAKARTA 10230","dist_m":300}},{"type":"Feature","geometry":{"type":"Point","coordinates":[106.822039,-6.195374]},"properties":{"station":"Sudirman","category":"makanan_minuman","nama":"COFFEE TOFFEE INDONESIA","alamat":"JL. BLORA NO.29 RT 003%2FRW 006 MENTENG MENTENG JAKARTA PUSAT DKI JAKARTA, RT.1/RW.5, MENTENG, KEC. MENTENG, KOTA JAKARTA PUSAT, DAERAH KHUSUS IBUKOTA JAKARTA 10310","dist_m":798}},{"type":"Feature","geometry":{"type":"Point","coordinates":[106.846779,-6.207459]},"properties":{"station":"Manggarai","category":"makanan_minuman","nama":"CAFE","alamat":"JL. MENTENG JAYA NO.RT.03/08, RT.4/RW.1, MENTENG, JAKARTA, KOTA JAKARTA PUSAT, DAERAH KHUSUS IBUKOTA JAKARTA 10310","dist_m":486}},{"type":"Feature","geometry":{"type":"Point","coordinates":[106.82201,-6.19564]},"properties":{"station":"Sudirman","category":"makanan_minuman","nama":"TIMES SQUARE RESTAURANT & BAR","alamat":"JL. M.H. THAMRIN NO.1, RT.1/RW.5, MENTENG, KEC. MENTENG, KOTA JAKARTA PUSAT, DAERAH KHUSUS IBUKOTA JAKARTA 10310","dist_m":770}},{"type":"Feature","geometry":{"type":"Point","coordinates":[106.822355,-6.201147]},"properties":{"station":"Sudirman","category":"makanan_minuman","nama":"METRO COFFEE BAR","alamat":"JL. TANJUNG KARANG NO.5, RT.11/RW.20, KB. MELATI, KECAMATAN TANAH ABANG, KOTA JAKARTA PUSAT, DAERAH KHUSUS IBUKOTA JAKARTA 10230","dist_m":188}},{"type":"Feature","geometry":{"type":"Point","coordinates":[106.822808,-6.201658]},"properties":{"station":"Sudirman","category":"makanan_minuman","nama":"MIXUE MRT DUKUH ATAS","alamat":"STASIUN MRT DUKUH ATAS BNI, LOT. DKA NO.02, KB. MELATI, KECAMATAN TANAH ABANG, KOTA JAKARTA PUSAT, DAERAH KHUSUS IBUKOTA JAKARTA 10230","dist_m":113}},{"type":"Feature","geometry":{"type":"Point","coordinates":[106.823991,-6.197561]},"properties":{"station":"Sudirman","category":"makanan_minuman","nama":"COLD MOO MENTENG","alamat":"JL. DR. KUSUMA ATMAJA NO.83, MENTENG, CENTRAL JAKARTA CITY, JAKARTA 10310","dist_m":541}},{"type":"Feature","geometry":{"type":"Point","coordinates":[106.82428,-6.198349]},"properties":{"station":"Sudirman","category":"makanan_minuman","nama":"NITRO COFFEE MENTENG","alamat":"JL. SUMENEP NO.24, RT.11/RW.4, MENTENG, KEC. MENTENG, KOTA JAKARTA PUSAT, DAERAH KHUSUS IBUKOTA JAKARTA 10310","dist_m":459}},{"type":"Feature","geometry":{"type":"Point","coordinates":[106.84713,-6.205133]},"properties":{"station":"Manggarai","category":"makanan_minuman","nama":"COBA BOBA","alamat":"JL. PENATARAN NO.50, RT.18/RW.6, PEGANGSAAN, KEC. MENTENG, KOTA JAKARTA PUSAT, DAERAH KHUSUS IBUKOTA JAKARTA 10320","dist_m":658}},{"type":"Feature","geometry":{"type":"Point","coordinates":[106.821944,-6.195556]},"properties":{"station":"Sudirman","category":"makanan_minuman","nama":"ANNETTE GRAND INDONESIA","alamat":"JL. M.H. THAMRIN NO.1, RT.1/RW.5, KEBON MELATI, MENTENG, CENTRAL JAKARTA CITY, JAKARTA 10310","dist_m":780}},{"type":"Feature","geometry":{"type":"Point","coordinates":[106.8237,-6.196299]},"properties":{"station":"Sudirman","category":"makanan_minuman","nama":"THE MANDARIN ORIENTAL CAKE SHOP","alamat":"JALAN M H THAMRIN 10230","dist_m":679}},{"type":"Feature","geometry":{"type":"Point","coordinates":[106.823724,-6.19632]},"properties":{"station":"Sudirman","category":"makanan_minuman","nama":"CAKE SHOP","alamat":"JALAN M.H. THAMRIN","dist_m":677}},{"type":"Feature","geometry":{"type":"Point","coordinates":[106.821947,-6.19555]},"properties":{"station":"Sudirman","category":"makanan_minuman","nama":"LAPISLAPIS FOODHALL GRAND INDONESIA","alamat":"JALAN M H THAMRIN 1","dist_m":781}},{"type":"Feature","geometry":{"type":"Point","coordinates":[106.821523,-6.195667]},"properties":{"station":"Sudirman","category":"makanan_minuman","nama":"FRANCIS フランシス アルチザン","alamat":"GRAND INDONESIA EAST MALL, LG FLOOR","dist_m":780}},{"type":"Feature","geometry":{"type":"Point","coordinates":[106.82184,-6.195965]},"properties":{"station":"Sudirman","category":"makanan_minuman","nama":"BEARD PAPA'S","alamat":"GRAND INDONESIA, EAST MALL, LEVEL LG","dist_m":739}},{"type":"Feature","geometry":{"type":"Point","coordinates":[106.82248,-6.196589]},"properties":{"station":"Sudirman","category":"makanan_minuman","nama":"PAUL","alamat":"JALAN M H THAMRIN 1","dist_m":656}},{"type":"Feature","geometry":{"type":"Point","coordinates":[106.822595,-6.198957]},"properties":{"station":"Sudirman","category":"makanan_minuman","nama":"HOME MADE BAKERY","alamat":"JALAN MH THAMRIN 28-30","dist_m":396}},{"type":"Feature","geometry":{"type":"Point","coordinates":[106.8213,-6.199201]},"properties":{"station":"Sudirman","category":"makanan_minuman","nama":"TOUS LES JOURS CAFÉ","alamat":"AUTOGRAPH TOWER, LEVEL G, KEBON MELATI","dist_m":431}},{"type":"Feature","geometry":{"type":"Point","coordinates":[106.819748,-6.203281]},"properties":{"station":"Sudirman","category":"makanan_minuman","nama":"TOMAPLE GOURMET POTATO DONUTS","alamat":"JL JEND SUDIRMAN KAV 1 WISMA 46, KOTA BNI - GROUND FLOOR UNIT 16, RT.10/RW.11","dist_m":426}},{"type":"Feature","geometry":{"type":"Point","coordinates":[106.818739,-6.203638]},"properties":{"station":"Sudirman","category":"makanan_minuman","nama":"SATOO DELI SHOP","alamat":"LEVEL 1, SHANGRI-LA HOTEL, JL. JEND. SUDIRMAN KAV. 1","dist_m":544}},{"type":"Feature","geometry":{"type":"Point","coordinates":[106.823561,-6.20015]},"properties":{"station":"Sudirman","category":"makanan_minuman","nama":"DUNKIN DONUTS","alamat":"JALAN BLORA 11","dist_m":250}},{"type":"Feature","geometry":{"type":"Point","coordinates":[106.82601,-6.20029]},"properties":{"station":"Sudirman","category":"makanan_minuman","nama":"CHICORY EUROPEAN PATISSERIE","alamat":"JALAN SUMENEP 9","dist_m":363}},{"type":"Feature","geometry":{"type":"Point","coordinates":[106.823378,-6.202371]},"properties":{"station":"Sudirman","category":"makanan_minuman","nama":"ROTI'O STASIUN SUDIRMAN","alamat":"ST. SUDIRMAN, RT.13/RW.4","dist_m":14}},{"type":"Feature","geometry":{"type":"Point","coordinates":[106.82815,-6.19788]},"properties":{"station":"Sudirman","category":"makanan_minuman","nama":"QUIZNOS SUB","alamat":"JALAN HOS COKROAMINOTO 96","dist_m":719}},{"type":"Feature","geometry":{"type":"Point","coordinates":[106.828815,-6.202096]},"properties":{"station":"Sudirman","category":"makanan_minuman","nama":"TALENT CAKESHOP AND KITCHEN","alamat":"JALAN CIANJUR 17","dist_m":589}},{"type":"Feature","geometry":{"type":"Point","coordinates":[106.823485,-6.20154]},"properties":{"station":"Sudirman","category":"makanan_minuman","nama":"J.CO DONUTS & COFFEE","alamat":"JALAN BLORA NO. 29","dist_m":96}},{"type":"Feature","geometry":{"type":"Point","coordinates":[106.821563,-6.206031]},"properties":{"station":"Sudirman","category":"makanan_minuman","nama":"DOUBLE DIPPS DONUT & COFFEE","alamat":"JL. JENDRAL SUDIRMAN KAV 2","dist_m":457}},{"type":"Feature","geometry":{"type":"Point","coordinates":[106.846748,-6.204253]},"properties":{"station":"Manggarai","category":"makanan_minuman","nama":"MOMMY'S CHOCOLATE","alamat":"JALAN BONANG 19","dist_m":763}},{"type":"Feature","geometry":{"type":"Point","coordinates":[106.846597,-6.207225]},"properties":{"station":"Manggarai","category":"makanan_minuman","nama":"JENNA CAKE","alamat":"JL. MENTENG JAYA NO.13, RT.4/RW.1","dist_m":518}},{"type":"Feature","geometry":{"type":"Point","coordinates":[106.826089,-6.207163]},"properties":{"station":"Sudirman","category":"makanan_minuman","nama":"MADAM OGURA","alamat":"JALAN SETIA BUDI VI 18","dist_m":602}},{"type":"Feature","geometry":{"type":"Point","coordinates":[106.849051,-6.21126]},"properties":{"station":"Manggarai","category":"makanan_minuman","nama":"BOLUMER TEBET","alamat":"JL. DR. SAHARJO I NO.1, RT.1/RW.11","dist_m":173}},{"type":"Feature","geometry":{"type":"Point","coordinates":[106.84709,-6.209322]},"properties":{"station":"Manggarai","category":"makanan_minuman","nama":"J.CO DONUTS & COFFEE","alamat":"PASARAYA MANGGARAI, 1ST FLOOR, RT 2/RW 8, PASAR MANGGIS","dist_m":357}},{"type":"Feature","geometry":{"type":"Point","coordinates":[106.846993,-6.209825]},"properties":{"station":"Manggarai","category":"makanan_minuman","nama":"GOLD FRANCE","alamat":"JALAN SULTAN AGUNG 2A","dist_m":357}},{"type":"Feature","geometry":{"type":"Point","coordinates":[106.843445,-6.210445]},"properties":{"station":"Manggarai","category":"makanan_minuman","nama":"KITA BAKERY","alamat":"JALAN MENTENG WADAS IV 1","dist_m":747}},{"type":"Feature","geometry":{"type":"Point","coordinates":[106.844614,-6.213727]},"properties":{"station":"Manggarai","category":"makanan_minuman","nama":"LA BOUTIQUE GOURMANDE","alamat":"LE MÉRIDIEN JAKARTA","dist_m":732}},{"type":"Feature","geometry":{"type":"Point","coordinates":[106.848501,-6.216506]},"properties":{"station":"Manggarai","category":"makanan_minuman","nama":"CUP CAKE LUCU","alamat":"JALAN SWADAYA 1 9","dist_m":726}},{"type":"Feature","geometry":{"type":"Point","coordinates":[106.845189,-6.209245]},"properties":{"station":"Manggarai","category":"makanan_minuman","nama":"BURGER JON’S","alamat":"JL. MINANGKABAU BARAT NO.4D, RT.2/RW.10, PS. MANGGIS, KECAMATAN SETIABUDI, KOTA JAKARTA SELATAN, DAERAH KHUSUS IBUKOTA JAKARTA 12970","dist_m":564}},{"type":"Feature","geometry":{"type":"Point","coordinates":[106.845599,-6.208763]},"properties":{"station":"Manggarai","category":"makanan_minuman","nama":"FAILI FLOAT","alamat":"PS. MANGGIS, KECAMATAN SETIABUDI, KOTA JAKARTA SELATAN, DAERAH KHUSUS IBUKOTA JAKARTA","dist_m":533}},{"type":"Feature","geometry":{"type":"Point","coordinates":[106.846063,-6.215168]},"properties":{"station":"Manggarai","category":"makanan_minuman","nama":"BAKMI MM (MAS MBAHREP)","alamat":"RT.3/RW.9, MANGGARAI, KEC. TEBET, KOTA JAKARTA SELATAN, DAERAH KHUSUS IBUKOTA JAKARTA 12850","dist_m":717}},{"type":"Feature","geometry":{"type":"Point","coordinates":[106.846922,-6.209149]},"properties":{"station":"Manggarai","category":"makanan_minuman","nama":"AWAN SEAFOOD RESTO","alamat":"DAPURAYA #28 PASARAYA MANGGARAI LANTAI BASEMENT JALAN SULTAN AGUNG #1, MANGGARAI TEBET, JAKARTA SELATAN, RT.2/RW.8, PS. MANGGIS, KECAMATAN SETIABUDI, KOTA JAKARTA SELATAN, DAERAH KHUSUS IBUKOTA JAKARTA 12850","dist_m":381}},{"type":"Feature","geometry":{"type":"Point","coordinates":[106.845599,-6.208763]},"properties":{"station":"Manggarai","category":"makanan_minuman","nama":"DAPOER JUMBO SEAFOOD","alamat":"RT.2/RW.10, PS. MANGGIS, KECAMATAN SETIABUDI, KOTA JAKARTA SELATAN, DAERAH KHUSUS IBUKOTA JAKARTA 12970","dist_m":533}},{"type":"Feature","geometry":{"type":"Point","coordinates":[106.846853,-6.20958]},"properties":{"station":"Manggarai","category":"makanan_minuman","nama":"ROYAL ICE POTONG SINGAPORE","alamat":"DAPURAYA PASARAYA PASAR MANGGIS, JL. SULTAN AGUNG, RT.2/RW.8, MANGGARAI, KEC. TEBET, KOTA JAKARTA SELATAN, DAERAH KHUSUS IBUKOTA JAKARTA 12850","dist_m":376}},{"type":"Feature","geometry":{"type":"Point","coordinates":[106.853506,-6.215496]},"properties":{"station":"Manggarai","category":"makanan_minuman","nama":"AGEN ES KRIM DIAMOND MURAH","alamat":"JL. BUKIT DURI UTARA NO.4, RT.15/RW.2, MANGGARAI, KEC. TEBET, KOTA JAKARTA SELATAN, DAERAH KHUSUS IBUKOTA JAKARTA 12850","dist_m":693}},{"type":"Feature","geometry":{"type":"Point","coordinates":[106.848071,-6.216012]},"properties":{"station":"Manggarai","category":"makanan_minuman","nama":"NADA ESKRIM","alamat":"JL. SWADAYA 1 NO.10, RT.11/RW.9, MANGGARAI, KEC. TEBET, KOTA JAKARTA SELATAN, DAERAH KHUSUS IBUKOTA JAKARTA 12860","dist_m":688}},{"type":"Feature","geometry":{"type":"Point","coordinates":[106.84438,-6.212967]},"properties":{"station":"Manggarai","category":"makanan_minuman","nama":"KOPI KENANGAN - SPBU MINANGKABAU JAKARTA SELATAN (CONTAINER)","alamat":"JL. MINANGKABAU TIMUR NO.33, RT.6/RW.8, PASAR MANGGIS, SETIABUDI, SOUTH JAKARTA CITY, JAKARTA 12970","dist_m":713}},{"type":"Feature","geometry":{"type":"Point","coordinates":[106.824305,-6.207784]},"properties":{"station":"Sudirman","category":"makanan_minuman","nama":"KOPI KENANGAN - SETIABUDI JAKARTA SELATAN","alamat":"JL. SETIA BUDI BARAT NO.12, RT.3/RW.3, KUNINGAN, KARET KUNINGAN, SETIABUDI, SOUTH JAKARTA CITY, JAKARTA 12910","dist_m":605}},{"type":"Feature","geometry":{"type":"Point","coordinates":[106.843945,-6.212707]},"properties":{"station":"Manggarai","category":"makanan_minuman","nama":"TOKO KOPI TUKU - SPBU BP MINANGKABAU","alamat":"JL. MINANGKABAU BARAT, RT.1/RW.1, PS. MANGGIS, KECAMATAN SETIABUDI, KOTA JAKARTA SELATAN, DAERAH KHUSUS IBUKOTA JAKARTA 10450","dist_m":746}},{"type":"Feature","geometry":{"type":"Point","coordinates":[106.828748,-6.206672]},"properties":{"station":"Sudirman","category":"makanan_minuman","nama":"FIRST CRACK COFFEE RAJAWALI PLACE","alamat":"JL. H. R. RASUNA SAID NO.KAV. B, RT.5/RW.4, KUNINGAN, SETIABUDI, SOUTH JAKARTA CITY, JAKARTA 12910","dist_m":750}},{"type":"Feature","geometry":{"type":"Point","coordinates":[106.825001,-6.209259]},"properties":{"station":"Sudirman","category":"makanan_minuman","nama":"JANJI JIWA AND JIWA TOAST 94","alamat":"JL. TAMAN SETIA BUDI II NO.1, RT.5/RW.3, KUNINGAN, KARET KUNINGAN, SETIABUDI, SOUTH JAKARTA CITY, JAKARTA 12910","dist_m":781}},{"type":"Feature","geometry":{"type":"Point","coordinates":[106.847127,-6.209215]},"properties":{"station":"Manggarai","category":"makanan_minuman","nama":"J.CO DONUTS & COFFEE - PASARAYA MANGGARAI","alamat":"JL. SULTAN AGUNG NO.1 2, RT.2/RW.8, PS. MANGGIS, KECAMATAN SETIABUDI, KOTA JAKARTA SELATAN, DAERAH KHUSUS IBUKOTA JAKARTA 12850","dist_m":357}},{"type":"Feature","geometry":{"type":"Point","coordinates":[106.820005,-6.20329]},"properties":{"station":"Sudirman","category":"ritel_kemasan","nama":"INDOMARET POINT WISMA 46","alamat":"WISMA 46 - KOTA BNI, JL. JENDERAL SUDIRMAN NO.KAV. 1 LANTAI 2, RT.1/RW.8, KARET TENGSIN, KECAMATAN TANAH ABANG, KOTA JAKARTA PUSAT, DAERAH KHUSUS IBUKOTA JAKARTA 10220","dist_m":399}},{"type":"Feature","geometry":{"type":"Point","coordinates":[106.822337,-6.198831]},"properties":{"station":"Sudirman","category":"ritel_kemasan","nama":"FAMILY MART EXPRESS","alamat":"THAMRIN NINE, RW.1, KEBON MELATI, TANAH ABANG, CENTRAL JAKARTA CITY, JAKARTA 10230","dist_m":417}},{"type":"Feature","geometry":{"type":"Point","coordinates":[106.822591,-6.201631]},"properties":{"station":"Sudirman","category":"ritel_kemasan","nama":"INDOMARET POINT STASIUN MRT DUKUH ATAS","alamat":"TAMAN DUKUH ATAS JL. JENDERAL SUDIRMAN, RT.10/RW.20, KB. MELATI, KECAMATAN TANAH ABANG, KOTA JAKARTA PUSAT, DAERAH KHUSUS IBUKOTA JAKARTA 10230","dist_m":132}},{"type":"Feature","geometry":{"type":"Point","coordinates":[106.823403,-6.202386]},"properties":{"station":"Sudirman","category":"ritel_kemasan","nama":"INDOMARET POINT STASIUN SUDIRMAN","alamat":"STASIUN SUDIRMAN, JL. KENDAL, KEL. MENTENG, RT.2/RW.6, RT.2/RW.6, DUKUH ATAS, MENTENG, KEC. MENTENG, KOTA JAKARTA PUSAT, DAERAH KHUSUS IBUKOTA JAKARTA 10310","dist_m":11}},{"type":"Feature","geometry":{"type":"Point","coordinates":[106.817412,-6.20553]},"properties":{"station":"Sudirman","category":"ritel_kemasan","nama":"INDOMARET RUKO SUDIRMAN PARK","alamat":"RUKO SUDIRMAN PARK BLOK B NO. 3, RT.12/RW.11, KARET TENGSIN, TANAH ABANG, CENTRAL JAKARTA CITY, JAKARTA 10250","dist_m":758}},{"type":"Feature","geometry":{"type":"Point","coordinates":[106.823729,-6.199154]},"properties":{"station":"Sudirman","category":"ritel_kemasan","nama":"INDOMARET TCT THAMRIN","alamat":"NO.81 GEDUNG TCT BASEMENT 2, JL. M.H. THAMRIN, RT.1/RW.6, DUKUH ATAS, MENTENG, KEC. MENTENG, KOTA JAKARTA PUSAT, DAERAH KHUSUS IBUKOTA JAKARTA 10310","dist_m":362}},{"type":"Feature","geometry":{"type":"Point","coordinates":[106.848775,-6.205659]},"properties":{"station":"Manggarai","category":"ritel_kemasan","nama":"INDOMARET | PEGANGSAAN  FKZ4","alamat":"JL. TAMBAK NO.61A, RT.7/RW.6, PEGANGSAAN, KEC. MENTENG, KOTA JAKARTA PUSAT, DAERAH KHUSUS IBUKOTA JAKARTA 10320","dist_m":529}},{"type":"Feature","geometry":{"type":"Point","coordinates":[106.819637,-6.201327]},"properties":{"station":"Sudirman","category":"ritel_kemasan","nama":"INDOMARET POINT STASIUN BNI CITY","alamat":"JL. TALANG BETUTU UJUNG NO.31, RT.13/RW.4, KB. MELATI, KECAMATAN TANAH ABANG, KOTA JAKARTA PUSAT, DAERAH KHUSUS IBUKOTA JAKARTA 10230","dist_m":443}},{"type":"Feature","geometry":{"type":"Point","coordinates":[106.823779,-6.202029]},"properties":{"station":"Sudirman","category":"ritel_kemasan","nama":"INDOMARET | SIMPANG TEMU DUKUH ATAS","alamat":"JL. PS. BLORA NO.18 BLOK H1, RT.2/RW.6, DUKUH ATAS, MENTENG, CENTRAL JAKARTA CITY, JAKARTA 10310","dist_m":51}},{"type":"Feature","geometry":{"type":"Point","coordinates":[106.823574,-6.200877]},"properties":{"station":"Sudirman","category":"ritel_kemasan","nama":"ALFAMIDI BLORA","alamat":"JL. BLORA NO.24, RT.2/RW.6, DUKUH ATAS, KEC. MENTENG, KOTA JAKARTA PUSAT, DAERAH KHUSUS IBUKOTA JAKARTA 10310","dist_m":170}},{"type":"Feature","geometry":{"type":"Point","coordinates":[106.82163,-6.20523]},"properties":{"station":"Sudirman","category":"ritel_kemasan","nama":"INDOMARET ARTHALOKA","alamat":"GEDUNG ARTHALOKA, JL. JENDERAL SUDIRMAN NO.10 10, RT.10/RW.11, KARET TENGSIN, KECAMATAN TANAH ABANG, KOTA JAKARTA PUSAT, DAERAH KHUSUS IBUKOTA JAKARTA 10220","dist_m":377}},{"type":"Feature","geometry":{"type":"Point","coordinates":[106.822251,-6.199284]},"properties":{"station":"Sudirman","category":"ritel_kemasan","nama":"FAMILYMART CHUBB PLAZA","alamat":"CHUBB SQUARE, JL. M.H. THAMRIN NO.8-9 LANTAI B1 UNIT F1, KB. MELATI, KECAMATAN TANAH ABANG, KOTA JAKARTA PUSAT, DAERAH KHUSUS IBUKOTA JAKARTA 10230","dist_m":373}},{"type":"Feature","geometry":{"type":"Point","coordinates":[106.817194,-6.205498]},"properties":{"station":"Sudirman","category":"ritel_kemasan","nama":"FAMILYMART SUDIRMAN PARK 3","alamat":"JL. K.H. MAS MANSYUR NO.KAV. 35, RT.12/RW.11, KARET TENGSIN, KECAMATAN TANAH ABANG, KOTA JAKARTA PUSAT, DAERAH KHUSUS IBUKOTA JAKARTA 10250","dist_m":778}},{"type":"Feature","geometry":{"type":"Point","coordinates":[106.820144,-6.203951]},"properties":{"station":"Sudirman","category":"ritel_kemasan","nama":"FAMILYMART WISMA BNI 46","alamat":"JL. JENDERAL SUDIRMAN NO.KAV 01 10220, RT.10/RW.11, KARET TENGSIN, KECAMATAN TANAH ABANG, KOTA JAKARTA PUSAT, DAERAH KHUSUS IBUKOTA JAKARTA 10250","dist_m":409}},{"type":"Feature","geometry":{"type":"Point","coordinates":[106.81802,-6.206137]},"properties":{"station":"Sudirman","category":"ritel_kemasan","nama":"HEAVENLY KITCHEN FAMILYMART SUDIRMAN PARK 2","alamat":"JL. JENDERAL SUDIRMAN NO.10, RT.12/RW.11, KARET TENGSIN, KECAMATAN TANAH ABANG, KOTA JAKARTA PUSAT, DAERAH KHUSUS IBUKOTA JAKARTA 10250","dist_m":735}},{"type":"Feature","geometry":{"type":"Point","coordinates":[106.821206,-6.20602]},"properties":{"station":"Sudirman","category":"ritel_kemasan","nama":"FAMILYMART WISMA KEIAI","alamat":"JL. JEND. SUDIRMAN NO.3-4,KARET TENGSIN, TANAH ABANG, JAKARTA PUSAT 10220, RT.10/RW.11, KARET TENGSIN, KECAMATAN TANAH ABANG, KOTA JAKARTA PUSAT, DAERAH KHUSUS IBUKOTA JAKARTA 10250","dist_m":476}},{"type":"Feature","geometry":{"type":"Point","coordinates":[106.823454,-6.202195]},"properties":{"station":"Sudirman","category":"ritel_kemasan","nama":"FAMILYMART JL BLORA","alamat":"JL. BLORA NO.38-39 RT.2/RW.6, RT.2/RW.6, DUKUH ATAS, MENTENG, KEC. MENTENG, KOTA JAKARTA PUSAT, DAERAH KHUSUS IBUKOTA JAKARTA 10310","dist_m":23}},{"type":"Feature","geometry":{"type":"Point","coordinates":[106.823396,-6.201719]},"properties":{"station":"Sudirman","category":"ritel_kemasan","nama":"INDOMARET BLORA 3435","alamat":"JL. BLORA NO.32-33 RT.2/RW.6, RT.2/RW.6, DUKUH ATAS, MENTENG, KEC. MENTENG, KOTA JAKARTA PUSAT, DAERAH KHUSUS IBUKOTA JAKARTA 10310","dist_m":77}},{"type":"Feature","geometry":{"type":"Point","coordinates":[106.849521,-6.209104]},"properties":{"station":"Manggarai","category":"ritel_kemasan","nama":"INDOMARET POINT","alamat":"STASIUN KERETA API MANGGARAI KEBON MANGGIS, RT.15/RW.4, MANGGARAI, KEC. TEBET, KOTA JAKARTA SELATAN, DAERAH KHUSUS IBUKOTA JAKARTA 12850","dist_m":143}},{"type":"Feature","geometry":{"type":"Point","coordinates":[106.82499,-6.209221]},"properties":{"station":"Sudirman","category":"ritel_kemasan","nama":"FAMILYMART SETIABUDI","alamat":"JL. TAMAN SETIA BUDI II NO.1, RT.5/RW.3, KUNINGAN, KARET KUNINGAN, KECAMATAN SETIABUDI, KOTA JAKARTA SELATAN, DAERAH KHUSUS IBUKOTA JAKARTA 12910","dist_m":776}},{"type":"Feature","geometry":{"type":"Point","coordinates":[106.826656,-6.206736]},"properties":{"station":"Sudirman","category":"ritel_kemasan","nama":"INDOMARET (TOKX)","alamat":"JL. SETIA BUDI VIII NO.10, RT.2/RW.3, KUNINGAN, SETIA BUDI, KECAMATAN SETIABUDI, KOTA JAKARTA SELATAN, DAERAH KHUSUS IBUKOTA JAKARTA 12910","dist_m":595}},{"type":"Feature","geometry":{"type":"Point","coordinates":[106.824557,-6.208681]},"properties":{"station":"Sudirman","category":"ritel_kemasan","nama":"ALFAMART SETIABUDI BARAT","alamat":"JL. SETIA BUDI BARAT NO.5, RT. 004/003, RT.5/RW.3, KUNINGAN, SETIA BUDI, KECAMATAN SETIABUDI, KOTA JAKARTA SELATAN, DAERAH KHUSUS IBUKOTA JAKARTA 12910","dist_m":708}},{"type":"Feature","geometry":{"type":"Point","coordinates":[106.84775,-6.209366]},"properties":{"station":"Manggarai","category":"ritel_kemasan","nama":"INDOMARET MANGGARAI TB98","alamat":"JL. DR. SAHARJO NO.11D, RT.2/RW.5, MANGGARAI, KEC. TEBET, KOTA JAKARTA SELATAN, DAERAH KHUSUS IBUKOTA JAKARTA 12850","dist_m":286}},{"type":"Feature","geometry":{"type":"Point","coordinates":[106.853077,-6.213532]},"properties":{"station":"Manggarai","category":"ritel_kemasan","nama":"FAMILYMART KAI MANGGARAI","alamat":"JL. MANGGARAI UTARA 1 NO.1, MANGGARAI, KEC. TEBET, KOTA JAKARTA SELATAN, DAERAH KHUSUS IBUKOTA JAKARTA 12850","dist_m":488}},{"type":"Feature","geometry":{"type":"Point","coordinates":[106.848762,-6.205882]},"properties":{"station":"Manggarai","category":"apotek_kesehatan","nama":"APOTEK","alamat":"LT.1 RSIA TAMBAK, JL. TAMBAK NO.18, RT.1/RW.6, PEGANGSAAN, KEC. MENTENG, KOTA JAKARTA PUSAT, DAERAH KHUSUS IBUKOTA JAKARTA 10320","dist_m":506}},{"type":"Feature","geometry":{"type":"Point","coordinates":[106.818912,-6.203474]},"properties":{"station":"Sudirman","category":"apotek_kesehatan","nama":"APOTIK SELECTA +","alamat":"APARTEMEN SUDIRMAN PARK. LOBBY UTAMA UNIT A/GF/05, JL. K.H. MAS MANSYUR NO.KAV.35, RT.10/RW.9, KARET TENGSIN, KECAMATAN TANAH ABANG, KOTA JAKARTA PUSAT, DAERAH KHUSUS IBUKOTA JAKARTA 10240","dist_m":521}},{"type":"Feature","geometry":{"type":"Point","coordinates":[106.848649,-6.206255]},"properties":{"station":"Manggarai","category":"apotek_kesehatan","nama":"RING1","alamat":"JL. TAMBAK, RT.1/RW.6, PEGANGSAAN, KEC. MENTENG, KOTA JAKARTA PUSAT, DAERAH KHUSUS IBUKOTA JAKARTA 10320","dist_m":471}},{"type":"Feature","geometry":{"type":"Point","coordinates":[106.820191,-6.203559]},"properties":{"station":"Sudirman","category":"apotek_kesehatan","nama":"APOTEK WISMA 46","alamat":"JL. JENDERAL SUDIRMAN NO.14, RT.10/RW.1, BEND. HILIR, KECAMATAN TANAH ABANG, KOTA JAKARTA PUSAT, DAERAH KHUSUS IBUKOTA JAKARTA 10210","dist_m":388}},{"type":"Feature","geometry":{"type":"Point","coordinates":[106.823887,-6.201003]},"properties":{"station":"Sudirman","category":"apotek_kesehatan","nama":"KIMIA KENCANA","alamat":"JL. LASEM 6 NO.4, RT.6/RW.6, DUKUH ATAS, MENTENG, KEC. MENTENG, KOTA JAKARTA PUSAT, DAERAH KHUSUS IBUKOTA JAKARTA 10310","dist_m":161}},{"type":"Feature","geometry":{"type":"Point","coordinates":[106.821012,-6.203509]},"properties":{"station":"Sudirman","category":"apotek_kesehatan","nama":"SOLVAY PHARMA INDONESIA","alamat":"JL. JEND SUDIRMAN KAV 1 KARET TENGSIN TANAH ABANG JAKARTA PUSAT DKI JAKARTA, RT.10/RW.11, KARET TENGSIN, KECAMATAN TANAH ABANG, KOTA JAKARTA PUSAT, DAERAH KHUSUS IBUKOTA JAKARTA 10250","dist_m":301}},{"type":"Feature","geometry":{"type":"Point","coordinates":[106.847752,-6.206904]},"properties":{"station":"Manggarai","category":"apotek_kesehatan","nama":"DUNIA SEHAT","alamat":"JL. MUARA KARANG RAYA, RT.2/RW.6, PEGANGSAAN, KEC. MENTENG, KOTA JAKARTA PUSAT, DAERAH KHUSUS IBUKOTA JAKARTA 10320","dist_m":456}},{"type":"Feature","geometry":{"type":"Point","coordinates":[106.844925,-6.209478]},"properties":{"station":"Manggarai","category":"apotek_kesehatan","nama":"HAIR TONIC PENUMBUH RAMBUT","alamat":"JL. MINANGKABAU BARAT NO.6C, RT.1/RW.1, PS. MANGGIS, KECAMATAN SETIABUDI, KOTA JAKARTA SELATAN, DAERAH KHUSUS IBUKOTA JAKARTA 12970","dist_m":589}},{"type":"Feature","geometry":{"type":"Point","coordinates":[106.845599,-6.208763]},"properties":{"station":"Manggarai","category":"apotek_kesehatan","nama":"SAHABAT DE NATURE","alamat":"RT.2/RW.10, PS. MANGGIS, KECAMATAN SETIABUDI, KOTA JAKARTA SELATAN, DAERAH KHUSUS IBUKOTA JAKARTA 12970","dist_m":533}},{"type":"Feature","geometry":{"type":"Point","coordinates":[106.845763,-6.211233]},"properties":{"station":"Manggarai","category":"apotek_kesehatan","nama":"DELIVERT EKA JAYA. PT","alamat":"JL. PADANG NO.17 5, RT.5/RW.8, PS. MANGGIS, KECAMATAN SETIABUDI, KOTA JAKARTA SELATAN, DAERAH KHUSUS IBUKOTA JAKARTA 12850","dist_m":504}},{"type":"Feature","geometry":{"type":"Point","coordinates":[106.844799,-6.21396]},"properties":{"station":"Manggarai","category":"apotek_kesehatan","nama":"PT. PUSAKA AMSAL FARMA","alamat":"JL. DR. SAHARJO NO.3 14, RT.14/RW.8, MANGGARAI, KEC. TEBET, KOTA JAKARTA SELATAN, DAERAH KHUSUS IBUKOTA JAKARTA 12850","dist_m":729}},{"type":"Feature","geometry":{"type":"Point","coordinates":[106.845007,-6.209165]},"properties":{"station":"Manggarai","category":"apotek_kesehatan","nama":"FLAXAMOVE","alamat":"JL. MINANGKABAU BARAT NO.1B 1, RT.2/RW.10, PS. MANGGIS, KECAMATAN SETIABUDI, KOTA JAKARTA SELATAN, DAERAH KHUSUS IBUKOTA JAKARTA 12970","dist_m":585}},{"type":"Feature","geometry":{"type":"Point","coordinates":[106.844227,-6.211876]},"properties":{"station":"Manggarai","category":"apotek_kesehatan","nama":"DINDA","alamat":"JL. MINANGKABAU BARAT NO.58, RT.1/RW.1, PS. MANGGIS, KECAMATAN SETIABUDI, KOTA JAKARTA SELATAN, DAERAH KHUSUS IBUKOTA JAKARTA 12970","dist_m":686}},{"type":"Feature","geometry":{"type":"Point","coordinates":[106.847017,-6.209498]},"properties":{"station":"Manggarai","category":"apotek_kesehatan","nama":"WULAN","alamat":"JL. PADANG NO.5 2, RT.2/RW.8, PS. MANGGIS, KECAMATAN SETIABUDI, KOTA JAKARTA SELATAN, DAERAH KHUSUS IBUKOTA JAKARTA 12850","dist_m":360}},{"type":"Feature","geometry":{"type":"Point","coordinates":[106.84704,-6.20925]},"properties":{"station":"Manggarai","category":"apotek_kesehatan","nama":"CARING","alamat":"JL. SULTAN AGUNG NO.1 2, RT.2/RW.8, PS. MANGGIS, KECAMATAN SETIABUDI, KOTA JAKARTA SELATAN, DAERAH KHUSUS IBUKOTA JAKARTA 12850","dist_m":365}},{"type":"Feature","geometry":{"type":"Point","coordinates":[106.846158,-6.210784]},"properties":{"station":"Manggarai","category":"apotek_kesehatan","nama":"SOLOCO JAKARTA","alamat":"JL. PADANG NO.9 3, RT.3/RW.8, PS. MANGGIS, KECAMATAN SETIABUDI, KOTA JAKARTA SELATAN, DAERAH KHUSUS IBUKOTA JAKARTA 12850","dist_m":452}},{"type":"Feature","geometry":{"type":"Point","coordinates":[106.847184,-6.211806]},"properties":{"station":"Manggarai","category":"apotek_kesehatan","nama":"APOTEK LIFEPACK JAKARTA","alamat":"INFINIA PARK, JL. DR. SAHARJO NO.45 A63, RT.1/RW.7, MANGGARAI, KEC. TEBET, DAERAH KHUSUS IBUKOTA JAKARTA 12850","dist_m":378}},{"type":"Feature","geometry":{"type":"Point","coordinates":[106.853446,-6.204591]},"properties":{"station":"Manggarai","category":"jasa","nama":"PIJAT TRADISIONAL SYARIAH IBU PARTI MATRAMAN","alamat":"JL. MATRAMAN DALAM III, RT.12/RW.7, PEGANGSAAN, KEC. MENTENG, KOTA JAKARTA PUSAT, DAERAH KHUSUS IBUKOTA JAKARTA 10320","dist_m":720}},{"type":"Feature","geometry":{"type":"Point","coordinates":[106.85332,-6.203972]},"properties":{"station":"Manggarai","category":"jasa","nama":"METRO LAUNDRY MATRAMAN DALAM II GANG 3","alamat":"JL. MATRAMAN DALAM 2 GANG 3 NO.7D, RT.14/RW.8, PEGANGSAAN, MENTENG, CENTRAL JAKARTA CITY, JAKARTA 10320","dist_m":774}},{"type":"Feature","geometry":{"type":"Point","coordinates":[106.85282,-6.205742]},"properties":{"station":"Manggarai","category":"jasa","nama":"IFIX LAUNDRY","alamat":"RT.9/RW.7, PEGANGSAAN, KEC. MENTENG, KOTA JAKARTA PUSAT, DAERAH KHUSUS IBUKOTA JAKARTA 10320","dist_m":574}},{"type":"Feature","geometry":{"type":"Point","coordinates":[106.852469,-6.204904]},"properties":{"station":"Manggarai","category":"jasa","nama":"LAUNDRY TRI SAKTI","alamat":"JL. MATRAMAN DALAM III NO.12 RT, RT.6/RW.7, PEGANGSAAN, KEC. MENTENG, KOTA JAKARTA PUSAT, DAERAH KHUSUS IBUKOTA JAKARTA 10320","dist_m":640}},{"type":"Feature","geometry":{"type":"Point","coordinates":[106.845454,-6.207865]},"properties":{"station":"Manggarai","category":"jasa","nama":"LAUNDRY BERSIJO","alamat":"JL. MENTENG JAYA NO.KEC, RT.10/RW.1, MENTENG, KEC. MENTENG, KOTA JAKARTA PUSAT, DAERAH KHUSUS IBUKOTA JAKARTA 10310","dist_m":585}},{"type":"Feature","geometry":{"type":"Point","coordinates":[106.844693,-6.207733]},"properties":{"station":"Manggarai","category":"jasa","nama":"JAYANTI LAUNDRY","alamat":"RT.11/RW.1, MENTENG, KEC. MENTENG, KOTA JAKARTA PUSAT, DAERAH KHUSUS IBUKOTA JAKARTA 10310","dist_m":668}},{"type":"Feature","geometry":{"type":"Point","coordinates":[106.852128,-6.204359]},"properties":{"station":"Manggarai","category":"jasa","nama":"SOVIE LAUNDRY MATRAMAN DALAM 2","alamat":"JL. MATRAMAN DALAM III NO.22 10, RT.6/RW.8, PEGANGSAAN, KEC. MENTENG, KOTA JAKARTA PUSAT, DAERAH KHUSUS IBUKOTA JAKARTA 10320","dist_m":684}},{"type":"Feature","geometry":{"type":"Point","coordinates":[106.849254,-6.203345]},"properties":{"station":"Manggarai","category":"jasa","nama":"EXPRESS LAUNDRY JAKARTA","alamat":"JL. TAMBAK NO.15A, RT.3/RW.5, PEGANGSAAN, KEC. MENTENG, KOTA JAKARTA PUSAT, DAERAH KHUSUS IBUKOTA JAKARTA 10320","dist_m":769}},{"type":"Feature","geometry":{"type":"Point","coordinates":[106.849091,-6.203972]},"properties":{"station":"Manggarai","category":"jasa","nama":"PEGADAIAN UPC TAMBAK","alamat":"JL. TAMBAK NO.2 9, RT.9/RW.5, PEGANGSAAN, KEC. MENTENG, KOTA JAKARTA PUSAT, DAERAH KHUSUS IBUKOTA JAKARTA 10320","dist_m":703}},{"type":"Feature","geometry":{"type":"Point","coordinates":[106.849034,-6.20603]},"properties":{"station":"Manggarai","category":"jasa","nama":"BIKE POINT SIDOMULYO MOTOR","alamat":"JL. TAMBAK NO.40, RT.5/RW.4, PEGANGSAAN, KEC. MENTENG, KOTA JAKARTA PUSAT, DAERAH KHUSUS IBUKOTA JAKARTA 10320","dist_m":481}},{"type":"Feature","geometry":{"type":"Point","coordinates":[106.849032,-6.206152]},"properties":{"station":"Manggarai","category":"jasa","nama":"PT. TERRA PERKASA MANDIRI","alamat":"JL. TAMBAK NO.41C 5, RT.5/RW.4, PEGANGSAAN, KEC. MENTENG, KOTA JAKARTA PUSAT, DAERAH KHUSUS IBUKOTA JAKARTA 10320","dist_m":468}},{"type":"Feature","geometry":{"type":"Point","coordinates":[106.848953,-6.206706]},"properties":{"station":"Manggarai","category":"jasa","nama":"LAUNDRY 45 TAMBAK","alamat":"JL. TAMBAK, RT.7/RW.4, PEGANGSAAN, MENTENG, CENTRAL JAKARTA CITY, JAKARTA 10320","dist_m":412}},{"type":"Feature","geometry":{"type":"Point","coordinates":[106.848938,-6.20358]},"properties":{"station":"Manggarai","category":"jasa","nama":"ADMIRA LAUNDRY","alamat":"JL. TAMBAK NO.16, RT.3/RW.5, PEGANGSAAN, KEC. MENTENG, KOTA JAKARTA PUSAT, DAERAH KHUSUS IBUKOTA JAKARTA 10320","dist_m":749}},{"type":"Feature","geometry":{"type":"Point","coordinates":[106.847712,-6.205708]},"properties":{"station":"Manggarai","category":"jasa","nama":"LAUNDRY FAREZKHA","alamat":"JL. BONANG MATRAMAN JAYA GG. D GG. E NO.14, RT.9/RW.6, PEGANGSAAN, KEC. MENTENG, KOTA JAKARTA PUSAT, DAERAH KHUSUS IBUKOTA JAKARTA 10320","dist_m":570}},{"type":"Feature","geometry":{"type":"Point","coordinates":[106.847647,-6.204474]},"properties":{"station":"Manggarai","category":"jasa","nama":"BENGKEL MOTOR GARASI","alamat":"JL. TAMBAK II KOMP. POLRI NO.8 5, PEGANGSAAN, KEC. MENTENG, KOTA JAKARTA PUSAT, DAERAH KHUSUS IBUKOTA JAKARTA 10320","dist_m":696}},{"type":"Feature","geometry":{"type":"Point","coordinates":[106.847369,-6.205556]},"properties":{"station":"Manggarai","category":"jasa","nama":"SETU7U LAUNDRY","alamat":"GG. E NO.46 9, RT.10/RW.6, PEGANGSAAN, KEC. MENTENG, KOTA JAKARTA PUSAT, DAERAH KHUSUS IBUKOTA JAKARTA 10320","dist_m":604}},{"type":"Feature","geometry":{"type":"Point","coordinates":[106.828336,-6.197507]},"properties":{"station":"Sudirman","category":"jasa","nama":"PT. CREDENSA","alamat":"JL. HOS. COKROAMINOTO NO.88, RT.2/RW.5, MENTENG, KEC. MENTENG, KOTA JAKARTA PUSAT, DAERAH KHUSUS IBUKOTA JAKARTA 10310","dist_m":763}},{"type":"Feature","geometry":{"type":"Point","coordinates":[106.828228,-6.197014]},"properties":{"station":"Sudirman","category":"jasa","nama":"ESL EXPRESS AGEN JAKARTA - MENTENG","alamat":"JL. HOS. COKROAMINOTO NO. 82 MENTENG, RT/RW 01/05, RT.2/RW.5, MENTENG, KEC. MENTENG, KOTA JAKARTA PUSAT, DAERAH KHUSUS IBUKOTA JAKARTA 10310","dist_m":795}},{"type":"Feature","geometry":{"type":"Point","coordinates":[106.82783,-6.198391]},"properties":{"station":"Sudirman","category":"jasa","nama":"PT SARANAMEDIA","alamat":"JL. PANARUKAN NO.7, RT.2/RW.5, MENTENG, KEC. MENTENG, KOTA JAKARTA PUSAT, DAERAH KHUSUS IBUKOTA JAKARTA 10310","dist_m":654}},{"type":"Feature","geometry":{"type":"Point","coordinates":[106.829666,-6.202016]},"properties":{"station":"Sudirman","category":"jasa","nama":"FISCO KONSULTAN PAJAK","alamat":"JL. CIANJUR NO.7, MENTENG, KEC. MENTENG, KOTA JAKARTA PUSAT, DAERAH KHUSUS IBUKOTA JAKARTA 10310","dist_m":683}},{"type":"Feature","geometry":{"type":"Point","coordinates":[106.82639,-6.202825]},"properties":{"station":"Sudirman","category":"jasa","nama":"KANTOR PT. SWAT SERVICE INDONESIA","alamat":"JL. KENDAL NO.5, RT.10/RW.6, DUKUH ATAS, MENTENG, KEC. MENTENG, KOTA JAKARTA PUSAT, DAERAH KHUSUS IBUKOTA JAKARTA 10310","dist_m":323}},{"type":"Feature","geometry":{"type":"Point","coordinates":[106.825443,-6.198133]},"properties":{"station":"Sudirman","category":"jasa","nama":"KANTOR HUKUM TIGA WANGSA","alamat":"JL. IMAM BONJOL NO.57, MENTENG, KEC. MENTENG, KOTA JAKARTA PUSAT, DAERAH KHUSUS IBUKOTA JAKARTA 10310","dist_m":521}},{"type":"Feature","geometry":{"type":"Point","coordinates":[106.825436,-6.198059]},"properties":{"station":"Sudirman","category":"jasa","nama":"PT. TME","alamat":"JL. IMAM BONJOL NO.57, RT.8/RW.4, MENTENG, KEC. MENTENG, KOTA JAKARTA PUSAT, DAERAH KHUSUS IBUKOTA JAKARTA 10310","dist_m":528}},{"type":"Feature","geometry":{"type":"Point","coordinates":[106.825325,-6.195942]},"properties":{"station":"Sudirman","category":"jasa","nama":"PT ZEUS PROPERTY","alamat":"JL. H. AGUS SALIM NO.117 1, RT.1/RW.5, MENTENG, KEC. MENTENG, KOTA JAKARTA PUSAT, DAERAH KHUSUS IBUKOTA JAKARTA 10310","dist_m":746}},{"type":"Feature","geometry":{"type":"Point","coordinates":[106.82482,-6.197588]},"properties":{"station":"Sudirman","category":"jasa","nama":"ASOSIASI KARTU KREDIT INDONESIA (AKKI)","alamat":"JL. IMAM BONJOL NO.5 8, RT.8/RW.4, MENTENG, KEC. MENTENG, KOTA JAKARTA PUSAT, DAERAH KHUSUS IBUKOTA JAKARTA 10310","dist_m":555}},{"type":"Feature","geometry":{"type":"Point","coordinates":[106.824752,-6.197557]},"properties":{"station":"Sudirman","category":"jasa","nama":"AXA MANDIRI TELEMARKETING CENTER","alamat":"JL. IMAM BONJOL NO.61, RT.8/RW.4, MENTENG, KEC. MENTENG, KOTA JAKARTA PUSAT, DAERAH KHUSUS IBUKOTA JAKARTA 10310","dist_m":556}},{"type":"Feature","geometry":{"type":"Point","coordinates":[106.824751,-6.197557]},"properties":{"station":"Sudirman","category":"jasa","nama":"MANDIRI TUNAS FINANCE - KANTOR PUSAT","alamat":"JL. IMAM BONJOL NO.61 LEVEL 3A, RT.8/RW.4, MENTENG, KEC. MENTENG, KOTA JAKARTA PUSAT, DAERAH KHUSUS IBUKOTA JAKARTA 10310","dist_m":556}},{"type":"Feature","geometry":{"type":"Point","coordinates":[106.824001,-6.195535]},"properties":{"station":"Sudirman","category":"jasa","nama":"HARUM ENERGY","alamat":"JL. IMAM BONJOL NO. 80, RT.1/RW.5, MENTENG, KEC. MENTENG, KOTA JAKARTA PUSAT, DAERAH KHUSUS IBUKOTA JAKARTA 10310","dist_m":765}},{"type":"Feature","geometry":{"type":"Point","coordinates":[106.823691,-6.197711]},"properties":{"station":"Sudirman","category":"jasa","nama":"DEWI HOME SPA//PIJAT PANGGILAN TRADISIONAL MASSAGE","alamat":"JL. SUMENEP NO.125, RT.11/RW.4, MENTENG, KEC. MENTENG, KOTA JAKARTA PUSAT, DAERAH KHUSUS IBUKOTA JAKARTA 10310","dist_m":522}},{"type":"Feature","geometry":{"type":"Point","coordinates":[106.823578,-6.198971]},"properties":{"station":"Sudirman","category":"jasa","nama":"PT. CERESTAR INDONESIA","alamat":"JL. M.H. THAMRIN NO.81 LT.28, DUKUH ATAS, MENTENG, KEC. MENTENG, KOTA JAKARTA PUSAT, DAERAH KHUSUS IBUKOTA JAKARTA 10310","dist_m":381}},{"type":"Feature","geometry":{"type":"Point","coordinates":[106.823503,-6.199217]},"properties":{"station":"Sudirman","category":"jasa","nama":"INFINITE CONSULTING","alamat":"JL. M.H. THAMRIN NO.81, RT.1/RW.6, DUKUH ATAS, MENTENG, KEC. MENTENG, KOTA JAKARTA PUSAT, DAERAH KHUSUS IBUKOTA JAKARTA 10310","dist_m":354}},{"type":"Feature","geometry":{"type":"Point","coordinates":[106.822631,-6.1992]},"properties":{"station":"Sudirman","category":"jasa","nama":"PT. ASIA OUTSOURCING SERVICES (AOS)","alamat":"JL. MH THAMRIN NO.8-9, RT.14/RW.20, KB. MELATI, KECAMATAN TANAH ABANG, KOTA JAKARTA PUSAT, DAERAH KHUSUS IBUKOTA JAKARTA 10230","dist_m":369}},{"type":"Feature","geometry":{"type":"Point","coordinates":[106.822616,-6.196886]},"properties":{"station":"Sudirman","category":"jasa","nama":"PT PROFESIONAL TELEKOMUNIKASI INDONESIA","alamat":"JL. MH THAMRIN NO.1 LANTAI 53, RT.1/RW.5, MENTENG, KEC. MENTENG, KOTA JAKARTA PUSAT, DAERAH KHUSUS IBUKOTA JAKARTA 10310","dist_m":621}},{"type":"Feature","geometry":{"type":"Point","coordinates":[106.822571,-6.196725]},"properties":{"station":"Sudirman","category":"jasa","nama":"PT. IMR ANUGRAH MAJU","alamat":"JL. M.H. THAMRIN NO.1, DAERAH KHUSUS IBUKOTA JAKARTA 10310","dist_m":639}},{"type":"Feature","geometry":{"type":"Point","coordinates":[106.822434,-6.196619]},"properties":{"station":"Sudirman","category":"jasa","nama":"NINJA XPRESS","alamat":"JL. M.H. THAMRIN NO.01 1, RT.1/RW.5, KB. MELATI, KECAMATAN TANAH ABANG, KOTA JAKARTA PUSAT, DAERAH KHUSUS IBUKOTA JAKARTA 10310","dist_m":654}},{"type":"Feature","geometry":{"type":"Point","coordinates":[106.822429,-6.196246]},"properties":{"station":"Sudirman","category":"jasa","nama":"PT PROFESIONAL TELEKOMUNIKASI INDONESIA","alamat":"JL. MH THAMRIN NO.1 LANTAI 53, RT.1/RW.5, MENTENG, KEC. MENTENG, KOTA JAKARTA PUSAT, DAERAH KHUSUS IBUKOTA JAKARTA 10310","dist_m":694}},{"type":"Feature","geometry":{"type":"Point","coordinates":[106.822383,-6.19663]},"properties":{"station":"Sudirman","category":"jasa","nama":"ASTA DAHAYU CONSULTING","alamat":"JL. M.H. THAMRIN NO.1 LT.50, KEBON SIRIH, KEC. MENTENG, KOTA JAKARTA PUSAT, DAERAH KHUSUS IBUKOTA JAKARTA 10310","dist_m":653}},{"type":"Feature","geometry":{"type":"Point","coordinates":[106.822375,-6.196625]},"properties":{"station":"Sudirman","category":"jasa","nama":"JNE THAMRIN NINE","alamat":"GEDUNG ANZ SQUARE PODIUM THAMRIN NINE LT. B1 UNIT L4, ABANG, JALAN MH THAMRIN NO.1, KEBON MELATI, RT.1/RW.5, MENTENG, KEC. MENTENG, KOTA JAKARTA PUSAT, DAERAH KHUSUS IBUKOTA JAKARTA 10310","dist_m":654}},{"type":"Feature","geometry":{"type":"Point","coordinates":[106.822352,-6.198618]},"properties":{"station":"Sudirman","category":"jasa","nama":"MITHA MASSAGE HOMECARE PIJAT PANGGILAN KHUSUS BUAT WANITA","alamat":"JL. BATURAJA, RT.7/RW.1, KB. MELATI, KECAMATAN TANAH ABANG, KOTA JAKARTA PUSAT, DAERAH KHUSUS IBUKOTA JAKARTA 10230","dist_m":439}},{"type":"Feature","geometry":{"type":"Point","coordinates":[106.822046,-6.200261]},"properties":{"station":"Sudirman","category":"jasa","nama":"ASIA PRO BERJANGKA","alamat":"JL. SUNGAI GERONG NO.1A 10, RT.10/RW.20, KB. MELATI, KECAMATAN TANAH ABANG, KOTA JAKARTA PUSAT, DAERAH KHUSUS IBUKOTA JAKARTA 10230","dist_m":287}},{"type":"Feature","geometry":{"type":"Point","coordinates":[106.821944,-6.195556]},"properties":{"station":"Sudirman","category":"jasa","nama":"XL CENTER GRAND_INDONESIA (XL-AXIS CENTER)","alamat":"JL. M.H. THAMRIN NO.1, MENTENG, KEC. MENTENG EAST MALL GRAND INDONESIA, LT. 3A-IS 03, DAERAH KHUSUS IBUKOTA JAKARTA 10310","dist_m":780}},{"type":"Feature","geometry":{"type":"Point","coordinates":[106.821944,-6.195556]},"properties":{"station":"Sudirman","category":"jasa","nama":"WONG HANG TAILOR GRAND INDONESIA","alamat":"JL. MH THAMRIN NO.1 LEVEL UG, RT.1/RW.5, MENTENG, KEC. MENTENG, KOTA JAKARTA PUSAT, DAERAH KHUSUS IBUKOTA JAKARTA 10310","dist_m":780}},{"type":"Feature","geometry":{"type":"Point","coordinates":[106.821655,-6.20878]},"properties":{"station":"Sudirman","category":"jasa","nama":"PT. AXA MANDIRI FINANCIAL","alamat":"JL. JENDERAL SUDIRMAN NO.KAV. 10 - 11, RT.9/RW.11, KARET TENGSIN, KECAMATAN TANAH ABANG, KOTA JAKARTA PUSAT, DAERAH KHUSUS IBUKOTA JAKARTA 12930","dist_m":738}},{"type":"Feature","geometry":{"type":"Point","coordinates":[106.821594,-6.201677]},"properties":{"station":"Sudirman","category":"jasa","nama":"KANTOR PUSAT PT. KIMIA FARMA DIAGNOSTIKA","alamat":"JL. TALANG BETUTU NO.5 11, RT.11/RW.20, KB. MELATI, KECAMATAN TANAH ABANG, KOTA JAKARTA PUSAT, DAERAH KHUSUS IBUKOTA JAKARTA 10230","dist_m":225}},{"type":"Feature","geometry":{"type":"Point","coordinates":[106.82159,-6.20751]},"properties":{"station":"Sudirman","category":"jasa","nama":"PT ASTRA DIGITAL ARTA - ASTRAPAY","alamat":"JL. JENDERAL SUDIRMAN LANTAI 56, RT.10/RW.11, KARET TENGSIN, KECAMATAN TANAH ABANG, KOTA JAKARTA PUSAT, DAERAH KHUSUS IBUKOTA JAKARTA 10220","dist_m":606}},{"type":"Feature","geometry":{"type":"Point","coordinates":[106.821468,-6.207284]},"properties":{"station":"Sudirman","category":"jasa","nama":"KOKUO FAMILY MASSAGE & REFLEXOLOGY MENARA ASTRA","alamat":"JL. JEND. SUDIRMAN NO.KAV 5-6, RT.10/RW11 MENARA ASTRA, LT 2, RT.10/RW.11, KARET TENGSIN, KECAMATAN TANAH ABANG, KOTA JAKARTA PUSAT, DAERAH KHUSUS IBUKOTA JAKARTA 10250","dist_m":588}},{"type":"Feature","geometry":{"type":"Point","coordinates":[106.821372,-6.206597]},"properties":{"station":"Sudirman","category":"jasa","nama":"KANTOR PENGACARA ABRAHAM","alamat":"JL. JENDERAL SUDIRMAN NO.3-4, RT.10/RW.11, KARET TENGSIN, KECAMATAN TANAH ABANG, KOTA JAKARTA PUSAT, DAERAH KHUSUS IBUKOTA JAKARTA 10220","dist_m":523}},{"type":"Feature","geometry":{"type":"Point","coordinates":[106.821359,-6.207169]},"properties":{"station":"Sudirman","category":"jasa","nama":"PT. LINTAS MARGA SEDAYA","alamat":"JL. JENDERAL SUDIRMAN NO.10, RT.10/RW.11, KARET TENGSIN, KECAMATAN TANAH ABANG, KOTA JAKARTA PUSAT, DAERAH KHUSUS IBUKOTA JAKARTA 10220","dist_m":581}},{"type":"Feature","geometry":{"type":"Point","coordinates":[106.821314,-6.207363]},"properties":{"station":"Sudirman","category":"jasa","nama":"PT BAYER INDONESIA HEAD OFFICE","alamat":"JL. JENDERAL SUDIRMAN KAV. 5-6, DAERAH KHUSUS IBUKOTA JAKARTA","dist_m":603}},{"type":"Feature","geometry":{"type":"Point","coordinates":[106.821292,-6.208399]},"properties":{"station":"Sudirman","category":"jasa","nama":"WILSON PROPERTI ADVISINDO","alamat":"JL. JENDRAL SUDIRMAN KAV. 7-8 KARET TENGSIN TANAH ABANG JAKARTA PUSAT DKI JAKARTA, RT.10/RW.11, KARET TENGSIN, KECAMATAN TANAH ABANG, KOTA JAKARTA PUSAT, DAERAH KHUSUS IBUKOTA JAKARTA 10270","dist_m":710}},{"type":"Feature","geometry":{"type":"Point","coordinates":[106.821255,-6.207373]},"properties":{"station":"Sudirman","category":"jasa","nama":"PT. DAIKIN AIRCONDITIONING INDONESIA","alamat":"JL. JENDERAL SUDIRMAN NO.KAV. 5-6, KARET TENGSIN, KECAMATAN TANAH ABANG, KOTA JAKARTA PUSAT, DAERAH KHUSUS IBUKOTA JAKARTA 10220","dist_m":606}},{"type":"Feature","geometry":{"type":"Point","coordinates":[106.821226,-6.208395]},"properties":{"station":"Sudirman","category":"jasa","nama":"PT. EXA MITRA SOLUSI","alamat":"JL. JENDERAL SUDIRMAN NO.WISMA NUGRA SANTANA LT. 11 JL. JENDRAL SUDIRMAN KAV. 7-8, RT.10/RW.11, KARET TENGSIN, KECAMATAN TANAH ABANG, KOTA JAKARTA PUSAT, DAERAH KHUSUS IBUKOTA JAKARTA 10250","dist_m":712}},{"type":"Feature","geometry":{"type":"Point","coordinates":[106.821218,-6.20728]},"properties":{"station":"Sudirman","category":"jasa","nama":"PT. OS SELNAJAYA INDONESIA","alamat":"JL. JENDERAL SUDIRMAN NO.6 KAV 5, DAERAH KHUSUS IBUKOTA JAKARTA 10220","dist_m":598}},{"type":"Feature","geometry":{"type":"Point","coordinates":[106.821047,-6.201592]},"properties":{"station":"Sudirman","category":"jasa","nama":"PT. ASIA MUKTI LESTARI","alamat":"JL. TALANG BETUTU NO.11 A, RT.11/RW.20, KB. MELATI, KECAMATAN TANAH ABANG, KOTA JAKARTA PUSAT, DAERAH KHUSUS IBUKOTA JAKARTA 10230","dist_m":286}},{"type":"Feature","geometry":{"type":"Point","coordinates":[106.821019,-6.196121]},"properties":{"station":"Sudirman","category":"jasa","nama":"ENERGY MASSAGE & REFLEXOLOGY BAR","alamat":"JL. TELUK BETUNG NO.43, RT.4/RW.1, KEBON MELATI, TANAH ABANG, CENTRAL JAKARTA CITY, JAKARTA 10230","dist_m":750}},{"type":"Feature","geometry":{"type":"Point","coordinates":[106.820672,-6.195874]},"properties":{"station":"Sudirman","category":"jasa","nama":"PRESSTO LAUNDRY GRAND INDONESIA","alamat":"JL. TLK. BETUNG I NO.45A LT. LG #27, RT.1/RW.5, KB. MELATI, KECAMATAN TANAH ABANG, KOTA JAKARTA PUSAT, DAERAH KHUSUS IBUKOTA JAKARTA 10310","dist_m":790}},{"type":"Feature","geometry":{"type":"Point","coordinates":[106.820451,-6.208422]},"properties":{"station":"Sudirman","category":"jasa","nama":"HYPERNET TECHNOLOGIES MARKETING OFFICE","alamat":"JL. JENDERAL SUDIRMAN NO.10 TOWER 1, LANTAI 27, KARET TENGSIN, KECAMATAN TANAH ABANG, KOTA JAKARTA PUSAT, DAERAH KHUSUS IBUKOTA JAKARTA 10220","dist_m":750}},{"type":"Feature","geometry":{"type":"Point","coordinates":[106.820296,-6.200333]},"properties":{"station":"Sudirman","category":"jasa","nama":"KANTOR JASA RAHARJA","alamat":"JL. MARTAPURA RAYA NO.6, RT.3/RW.7, KB. MELATI, KECAMATAN TANAH ABANG, KOTA JAKARTA PUSAT, DAERAH KHUSUS IBUKOTA JAKARTA 10230","dist_m":422}},{"type":"Feature","geometry":{"type":"Point","coordinates":[106.820213,-6.203744]},"properties":{"station":"Sudirman","category":"jasa","nama":"AXA MANDIRI INSURANCE","alamat":"JL. JENDERAL SUDIRMAN, KAVLING 1, RT.10/RW.11, KARET TENGSIN, KECAMATAN TANAH ABANG, KOTA JAKARTA PUSAT, DAERAH KHUSUS IBUKOTA JAKARTA 10220","dist_m":393}},{"type":"Feature","geometry":{"type":"Point","coordinates":[106.819931,-6.203645]},"properties":{"station":"Sudirman","category":"jasa","nama":"CARGILL INDONESIA","alamat":"JL. JEND SUDIRMAN KAV 1 KARET TENGSIN TANAH ABANG JAKARTA PUSAT DKI JAKARTA, RT.10/RW.11, KARET TENGSIN, KECAMATAN TANAH ABANG, KOTA JAKARTA PUSAT, DAERAH KHUSUS IBUKOTA JAKARTA 10220","dist_m":418}},{"type":"Feature","geometry":{"type":"Point","coordinates":[106.819847,-6.201045]},"properties":{"station":"Sudirman","category":"jasa","nama":"ALEXA MASSAGE JAKARTA ( MASSAGE OUT CALL )","alamat":"JL. TALANG BETUTU UJUNG NO.34 A 10, RT.10/RW.5, KB. MELATI, KECAMATAN TANAH ABANG, KOTA JAKARTA PUSAT, DAERAH KHUSUS IBUKOTA JAKARTA 10230","dist_m":431}},{"type":"Feature","geometry":{"type":"Point","coordinates":[106.819594,-6.207755]},"properties":{"station":"Sudirman","category":"jasa","nama":"AL FURQON LAUNDRY","alamat":"JL. KARET PASAR BARU TIMUR 5 NO.33, RT.9/RW.11, KARET TENGSIN, KECAMATAN TANAH ABANG, KOTA JAKARTA PUSAT, DAERAH KHUSUS IBUKOTA JAKARTA 10220","dist_m":736}},{"type":"Feature","geometry":{"type":"Point","coordinates":[106.819542,-6.20015]},"properties":{"station":"Sudirman","category":"jasa","nama":"GLOBAL LAUNDRY","alamat":"JL. MARTAPURA II NO.14 10, RT.10/RW.2, KB. MELATI, KECAMATAN TANAH ABANG, KOTA JAKARTA PUSAT, DAERAH KHUSUS IBUKOTA JAKARTA 10230","dist_m":504}},{"type":"Feature","geometry":{"type":"Point","coordinates":[106.819381,-6.207212]},"properties":{"station":"Sudirman","category":"jasa","nama":"AGEN JNE JAYA PRIMA - KARET TENGSIN PERBANTUAN PICKUP","alamat":"JL. KARET PASAR BARU TIMUR 5 NO.51, RT.RW.17/RW.11, KARET TENGSIN, KECAMATAN TANAH ABANG, KOTA JAKARTA PUSAT, DAERAH KHUSUS IBUKOTA JAKARTA 10220","dist_m":703}},{"type":"Feature","geometry":{"type":"Point","coordinates":[106.81934,-6.19953]},"properties":{"station":"Sudirman","category":"jasa","nama":"P&I LAUNDRY","alamat":"JL. MARTAPURA IV NO.34, KEBON MELATI, TANAH ABANG, CENTRAL JAKARTA CITY, JAKARTA 10230","dist_m":560}},{"type":"Feature","geometry":{"type":"Point","coordinates":[106.819283,-6.207343]},"properties":{"station":"Sudirman","category":"jasa","nama":"ZZ LAUNDRY","alamat":"JL. KARET PASAR BARU TIMUR 5 NO.33 9, RT.9/RW.11, KARET TENGSIN, KECAMATAN TANAH ABANG, KOTA JAKARTA PUSAT, DAERAH KHUSUS IBUKOTA JAKARTA 10220","dist_m":721}},{"type":"Feature","geometry":{"type":"Point","coordinates":[106.819032,-6.205454]},"properties":{"station":"Sudirman","category":"jasa","nama":"RAFI LAUNDRY","alamat":"JL. KARET PS. BARU TIM. 5 NO.26, RT.10/RW.9, KARET TENGSIN, KECAMATAN TANAH ABANG, KOTA JAKARTA PUSAT, DAERAH KHUSUS IBUKOTA JAKARTA 10220","dist_m":599}},{"type":"Feature","geometry":{"type":"Point","coordinates":[106.818727,-6.203003]},"properties":{"station":"Sudirman","category":"jasa","nama":"THE JAKARTA CONSULTING GROUP","alamat":"WISMA 46 - KOTA BNI LT. 32, JALAN JEND SUDIRMAN NO. 1, TANAH ABANG, RT.10/RW.9, KARET TENGSIN, KECAMATAN TANAH ABANG, KOTA JAKARTA PUSAT, DAERAH KHUSUS IBUKOTA JAKARTA 10220","dist_m":532}},{"type":"Feature","geometry":{"type":"Point","coordinates":[106.818278,-6.205962]},"properties":{"station":"Sudirman","category":"jasa","nama":"JAKARTA MEDIANET","alamat":"SUDIRMAN PARK APARTMENT B/02/10A, RT.12/RW.11, KARET TENGSIN, KECAMATAN TANAH ABANG, KOTA JAKARTA PUSAT, DAERAH KHUSUS IBUKOTA JAKARTA 10220","dist_m":700}},{"type":"Feature","geometry":{"type":"Point","coordinates":[106.818094,-6.205984]},"properties":{"station":"Sudirman","category":"jasa","nama":"ZAP LAUNDRY SUDIRMAN PARK","alamat":"APARTEMEN SUDIRMAN PARK, TOWER A, LANTAI GF, GF/02, JAKARTA PUSAT, RT.12/RW.11, KARET TENGSIN, TANAH ABANG, CENTRAL JAKARTA CITY, JAKARTA 10250","dist_m":718}},{"type":"Feature","geometry":{"type":"Point","coordinates":[106.818041,-6.205574]},"properties":{"station":"Sudirman","category":"jasa","nama":"VVIP LAUNDRY - SUDIRMAN","alamat":"JL. K.H. MAS MANSYUR NO.KAV.35 BLOK B/20, RT.12/RW.11, KARET TENGSIN, TANAH ABANG, CENTRAL JAKARTA CITY, JAKARTA 10250","dist_m":699}},{"type":"Feature","geometry":{"type":"Point","coordinates":[106.817653,-6.205528]},"properties":{"station":"Sudirman","category":"jasa","nama":"WASSEN LAUNDRY & DRY CLEANING SUDIRMAN PARK","alamat":"JL. K.H. MAS MANSYUR KAV. 35 BASEMENT 1. BELAKANG, RT.12/RW.11, KARET TENGSIN, KECAMATAN TANAH ABANG, KOTA JAKARTA PUSAT, DAERAH KHUSUS IBUKOTA JAKARTA 10220","dist_m":734}},{"type":"Feature","geometry":{"type":"Point","coordinates":[106.817653,-6.205528]},"properties":{"station":"Sudirman","category":"jasa","nama":"TAXSAM.CO","alamat":"JL. K.H. MAS MANSYUR NO.KAV. 35, RT.15/RW.8, KARET TENGSIN, KECAMATAN TANAH ABANG, KOTA JAKARTA PUSAT, DAERAH KHUSUS IBUKOTA JAKARTA 10230","dist_m":734}},{"type":"Feature","geometry":{"type":"Point","coordinates":[106.817355,-6.199054]},"properties":{"station":"Sudirman","category":"jasa","nama":"OMAH'S LAUNDRY","alamat":"JL. DUKUH PINGGIR IV NO.28, KEBON MELATI, TANAH ABANG, CENTRAL JAKARTA CITY, JAKARTA 10230","dist_m":775}},{"type":"Feature","geometry":{"type":"Point","coordinates":[106.853837,-6.210732]},"properties":{"station":"Manggarai","category":"jasa","nama":"ESL EXPRESS AGEN JAKARTA - MANGGARAI UTARA","alamat":"JL. MANGGARAI UTARA 2 NO.37 1, RT.1/RW.4, MANGGARAI, KEC. TEBET, KOTA JAKARTA SELATAN, DAERAH KHUSUS IBUKOTA JAKARTA 12850","dist_m":406}},{"type":"Feature","geometry":{"type":"Point","coordinates":[106.853827,-6.211311]},"properties":{"station":"Manggarai","category":"jasa","nama":"PENJAHIT MANGGARAI","alamat":"JL. MANGGARAI UTARA VI NO.17 8, RT.8/RW.1, MANGGARAI, KEC. TEBET, KOTA JAKARTA SELATAN, DAERAH KHUSUS IBUKOTA JAKARTA 12850","dist_m":420}},{"type":"Feature","geometry":{"type":"Point","coordinates":[106.853446,-6.210329]},"properties":{"station":"Manggarai","category":"jasa","nama":"DEPOT MINEROS (ISI ULANG AIR GALON)","alamat":"JL. MANGGARAI UTARA 2 NO.24, RT.1/RW.4, MANGGARAI, KEC. TEBET, KOTA JAKARTA SELATAN, DAERAH KHUSUS IBUKOTA JAKARTA 12850","dist_m":359}},{"type":"Feature","geometry":{"type":"Point","coordinates":[106.853376,-6.212227]},"properties":{"station":"Manggarai","category":"jasa","nama":"J&T CARGO MANGGARAI (JNT CARGO MANGGARAI)","alamat":"JL. MANGGARAI UTARA VI NO.9, MANGGARAI, KEC. TEBET, KOTA JAKARTA SELATAN, DAERAH KHUSUS IBUKOTA JAKARTA 12850","dist_m":417}},{"type":"Feature","geometry":{"type":"Point","coordinates":[106.853216,-6.210249]},"properties":{"station":"Manggarai","category":"jasa","nama":"BENGKEL MOTOR SETIA GALUH","alamat":"JL. MANGGARAI UTARA 2 NO.23, RT.1/RW.4, MANGGARAI, KEC. TEBET, KOTA JAKARTA SELATAN, DAERAH KHUSUS IBUKOTA JAKARTA 12850","dist_m":333}},{"type":"Feature","geometry":{"type":"Point","coordinates":[106.849201,-6.208043]},"properties":{"station":"Manggarai","category":"jasa","nama":"TRI JAYA MOTOR","alamat":"JL. MANGGARAI UTARA 2, RT.13/RW.4, MANGGARAI, KEC. TEBET, KOTA JAKARTA SELATAN, DAERAH KHUSUS IBUKOTA JAKARTA 12850","dist_m":264}},{"type":"Feature","geometry":{"type":"Point","coordinates":[106.849066,-6.217232]},"properties":{"station":"Manggarai","category":"jasa","nama":"NAZWAH LAUNDRY","alamat":"JL. SWADAYA 1 NO.9, RT.9/RW.8, MANGGARAI SEL., KEC. TEBET, KOTA JAKARTA SELATAN, DAERAH KHUSUS IBUKOTA JAKARTA 12860","dist_m":792}},{"type":"Feature","geometry":{"type":"Point","coordinates":[106.849032,-6.208457]},"properties":{"station":"Manggarai","category":"jasa","nama":"BENGKEL MOTOR BANG JUNS MANGGARAI","alamat":"JL. MANGGARAI UTARA 2, MANGGARAI, KEC. TEBET, KOTA JAKARTA SELATAN, DAERAH KHUSUS IBUKOTA JAKARTA 12850","dist_m":233}},{"type":"Feature","geometry":{"type":"Point","coordinates":[106.848451,-6.21646]},"properties":{"station":"Manggarai","category":"jasa","nama":"2 PUTRI LAUNDRY KILOAN & SATUAN","alamat":"JL. SWADAYA 1 NO.8, RT.12/RW.9, MANGGARAI, KOTA JAKARTA SELATAN, DAERAH KHUSUS IBUKOTA JAKARTA 12850","dist_m":722}},{"type":"Feature","geometry":{"type":"Point","coordinates":[106.848413,-6.217165]},"properties":{"station":"Manggarai","category":"jasa","nama":"BENGKEL BANG TINO (AMBON)","alamat":"RT.12/RW.8, MANGGARAI SEL., KEC. TEBET, KOTA JAKARTA SELATAN, DAERAH KHUSUS IBUKOTA JAKARTA 12860","dist_m":799}},{"type":"Feature","geometry":{"type":"Point","coordinates":[106.847527,-6.215939]},"properties":{"station":"Manggarai","category":"jasa","nama":"LAUNDRY KAUSAR","alamat":"JL. SWADAYA II NO.2 6, RT.6/RW.9, MANGGARAI, KEC. TEBET, KOTA JAKARTA SELATAN, DAERAH KHUSUS IBUKOTA JAKARTA 12860","dist_m":703}},{"type":"Feature","geometry":{"type":"Point","coordinates":[106.847342,-6.215589]},"properties":{"station":"Manggarai","category":"jasa","nama":"DUTA SERVICE TV LED PANGGILAN LG,SONY, SAMSUNG, SHARP, TCL, BERGARANSI","alamat":"JL. DR. SAHARJO JL. SWADAYA II NO.17, RT.7/RW.9, MANGGARAI, KEC. TEBET, KOTA JAKARTA SELATAN, DAERAH KHUSUS IBUKOTA JAKARTA 12850","dist_m":677}},{"type":"Feature","geometry":{"type":"Point","coordinates":[106.852874,-6.212801]},"properties":{"station":"Manggarai","category":"jasa","nama":"KANG LINTANG AGEN PROPERTI ERA STAR","alamat":"JL. MANGGARAI UTARA 1 NO.11 BLOK H, RT.7/RW.1, MANGGARAI, KEC. TEBET, KOTA JAKARTA SELATAN, DAERAH KHUSUS IBUKOTA JAKARTA 12850","dist_m":414}},{"type":"Feature","geometry":{"type":"Point","coordinates":[106.852045,-6.20999]},"properties":{"station":"Manggarai","category":"jasa","nama":"KALOG EXPRESS","alamat":"JL. MANGGARAI UTARA 2 NO.4, MANGGARAI, KEC. TEBET, KOTA JAKARTA SELATAN, DAERAH KHUSUS IBUKOTA JAKARTA 12850","dist_m":205}},{"type":"Feature","geometry":{"type":"Point","coordinates":[106.851957,-6.211631]},"properties":{"station":"Manggarai","category":"jasa","nama":"AGEN FEDEX DHL UPS ARAMEX MATAHRIKU MANGGARAI","alamat":"JL. MANGGARAI UTARA 1 NO.F1, RT.7/RW.1, MANGGARAI, TEBET, SOUTH JAKARTA CITY, JAKARTA 12850","dist_m":251}},{"type":"Feature","geometry":{"type":"Point","coordinates":[106.851421,-6.210966]},"properties":{"station":"Manggarai","category":"jasa","nama":"INDAH LOGISTIK CARGO","alamat":"JL. MANGGARAI UTARA 1 NO.3A, MANGGARAI, KEC. TEBET, KOTA JAKARTA SELATAN, DAERAH KHUSUS IBUKOTA JAKARTA 12850","dist_m":160}},{"type":"Feature","geometry":{"type":"Point","coordinates":[106.846626,-6.21303]},"properties":{"station":"Manggarai","category":"jasa","nama":"PT. REPEX WAHANA","alamat":"JL. DR. SAHARJO, RT.1/RW.7, MANGGARAI, KEC. TEBET, KOTA JAKARTA SELATAN, DAERAH KHUSUS IBUKOTA JAKARTA 12850","dist_m":505}},{"type":"Feature","geometry":{"type":"Point","coordinates":[106.846162,-6.21143]},"properties":{"station":"Manggarai","category":"jasa","nama":"NUSA COOLINDO UTAMA","alamat":"JL. DR. SAHARJO NO.38 4, RT.4/RW.8, PS. MANGGIS, KECAMATAN SETIABUDI, KOTA JAKARTA SELATAN, DAERAH KHUSUS IBUKOTA JAKARTA 12970","dist_m":467}},{"type":"Feature","geometry":{"type":"Point","coordinates":[106.846147,-6.211395]},"properties":{"station":"Manggarai","category":"jasa","nama":"J&T EXPRESS SAHARJO (DROP OFF DAN PICK UP)","alamat":"JL. DR. SAHARJO KEL NO.38A 4, RT.4/RW.8, PS. MANGGIS, KECAMATAN SETIABUDI, KOTA JAKARTA SELATAN, DAERAH KHUSUS IBUKOTA JAKARTA 12910","dist_m":467}},{"type":"Feature","geometry":{"type":"Point","coordinates":[106.845599,-6.208763]},"properties":{"station":"Manggarai","category":"jasa","nama":"KANTOR POS JAKARTA TIMUR HALIM AIRPORT","alamat":"JL. SQUADRON, RT.2/RW.10, PS. MANGGIS, KECAMATAN SETIABUDI, KOTA JAKARTA SELATAN, DAERAH KHUSUS IBUKOTA JAKARTA 12970","dist_m":533}},{"type":"Feature","geometry":{"type":"Point","coordinates":[106.845599,-6.208763]},"properties":{"station":"Manggarai","category":"jasa","nama":"KANTOR POS TEGAL ALUR","alamat":"RT.2/RW.10, PASAR MANGGIS, SETIABUDI, SOUTH JAKARTA CITY, JAKARTA 12970","dist_m":533}},{"type":"Feature","geometry":{"type":"Point","coordinates":[106.845599,-6.208763]},"properties":{"station":"Manggarai","category":"jasa","nama":"J&T EXPRESS KOTA BAMBU SELATAN","alamat":"JL. ANDONG RAYA NO 4.KOTA BAMBU SELATAN. BARAT. BELAKANG NCS. ATAU RUMAH, SAKIT DHARMAIS, RT.2/RW.10, PASAR MANGGIS, RT.2/RW.10, PS. MANGGIS, KECAMATAN SETIABUDI, KOTA JAKARTA SELATAN, DAERAH KHUSUS IBUKOTA JAKARTA 12970","dist_m":533}},{"type":"Feature","geometry":{"type":"Point","coordinates":[106.845573,-6.215568]},"properties":{"station":"Manggarai","category":"jasa","nama":"DEPOT AIR ISI ULANG \"BANG MANUN\"","alamat":"JL. SWADAYA III NO.1 A, RT.11/RW.8, MANGGARAI, KEC. TEBET, KOTA JAKARTA SELATAN, DAERAH KHUSUS IBUKOTA JAKARTA 12860","dist_m":786}},{"type":"Feature","geometry":{"type":"Point","coordinates":[106.845322,-6.212755]},"properties":{"station":"Manggarai","category":"jasa","nama":"PASANG BARU LISTRIK DAN TAMBAH DAYA PLN","alamat":"JL. MINANGKABAU BARAT, PS. MANGGIS, KECAMATAN SETIABUDI, KOTA JAKARTA SELATAN, DAERAH KHUSUS IBUKOTA JAKARTA","dist_m":610}},{"type":"Feature","geometry":{"type":"Point","coordinates":[106.845276,-6.215395]},"properties":{"station":"Manggarai","category":"jasa","nama":"BENGKEL MOTOR TOMS RACING","alamat":"GG. BEDENG, RT.9/RW.10, MANGGARAI SEL., KEC. TEBET, KOTA JAKARTA SELATAN, DAERAH KHUSUS IBUKOTA JAKARTA 12850","dist_m":794}},{"type":"Feature","geometry":{"type":"Point","coordinates":[106.845171,-6.211544]},"properties":{"station":"Manggarai","category":"jasa","nama":"PEGADAIAN UPC ANCOL SEL","alamat":"JL. ANCOL SELATAN NO. 14, KEL. SUNTER AGUNG, RT.5/RW.8, PASAR MANGGIS, SETIABUDI, SOUTH JAKARTA CITY, JAKARTA 14321","dist_m":576}},{"type":"Feature","geometry":{"type":"Point","coordinates":[106.845101,-6.209199]},"properties":{"station":"Manggarai","category":"jasa","nama":"NOTARIS INDRA ISWARA S.H., M.KN","alamat":"JL. PARIAMAN NO.1 LT. DASAR A105, PS. MANGGIS, KECAMATAN SETIABUDI, KOTA JAKARTA SELATAN, DAERAH KHUSUS IBUKOTA JAKARTA 12970","dist_m":575}},{"type":"Feature","geometry":{"type":"Point","coordinates":[106.845058,-6.213824]},"properties":{"station":"Manggarai","category":"jasa","nama":"LAUNDRY BUNDA FADHLAN","alamat":"JL. DR. SAHARJO JL. SWADAYA IV NO.9, RT.016/008, MANGGARAI, KEC. TEBET, KOTA JAKARTA SELATAN, DAERAH KHUSUS IBUKOTA JAKARTA 12850","dist_m":697}},{"type":"Feature","geometry":{"type":"Point","coordinates":[106.844837,-6.214191]},"properties":{"station":"Manggarai","category":"jasa","nama":"SALSA LAUNDRY MANGGARAI","alamat":"JL. SWADAYA II NO.5, RT.14/RW.8, MANGGARAI, KEC. TEBET, KOTA JAKARTA SELATAN, DAERAH KHUSUS IBUKOTA JAKARTA 12850","dist_m":741}},{"type":"Feature","geometry":{"type":"Point","coordinates":[106.844768,-6.214153]},"properties":{"station":"Manggarai","category":"jasa","nama":"MR. BOIM LAUNDRY","alamat":"JL. SWADAYA II NO.1, RT.14/RW.8, MANGGARAI, KEC. TEBET, KOTA JAKARTA SELATAN, DAERAH KHUSUS IBUKOTA JAKARTA 12850","dist_m":744}},{"type":"Feature","geometry":{"type":"Point","coordinates":[106.844696,-6.212319]},"properties":{"station":"Manggarai","category":"jasa","nama":"PT. GAEMI DIGITAL INDONESIA","alamat":"JL. MINANGKABAU TIMUR NO.29 1, RT.6/RW.8, PS. MANGGIS, KECAMATAN SETIABUDI, KOTA JAKARTA SELATAN, DAERAH KHUSUS IBUKOTA JAKARTA 12970","dist_m":652}},{"type":"Feature","geometry":{"type":"Point","coordinates":[106.844652,-6.214783]},"properties":{"station":"Manggarai","category":"jasa","nama":"PT AINO INDONESIA, JAKARTA OFFICE","alamat":"JL. DR. SAHARJO NO.83, RT.13/RW.8, MANGGARAI, KEC. TEBET, KOTA JAKARTA SELATAN, DAERAH KHUSUS IBUKOTA JAKARTA 12850","dist_m":797}},{"type":"Feature","geometry":{"type":"Point","coordinates":[106.844652,-6.214783]},"properties":{"station":"Manggarai","category":"jasa","nama":"AGUNG TAX PARTNER","alamat":"JL. DR. SAHARJO NO.83, RT.13/RW.8, MANGGARAI, KEC. TEBET, KOTA JAKARTA SELATAN, DAERAH KHUSUS IBUKOTA JAKARTA 12850","dist_m":797}},{"type":"Feature","geometry":{"type":"Point","coordinates":[106.844539,-6.213847]},"properties":{"station":"Manggarai","category":"jasa","nama":"WAHANA EKSPRESS AGEN SAHARJO","alamat":"JL. DR. SAHARJO NO.70 13, RT.9/RW.8, MANGGARAI, KEC. TEBET, KOTA JAKARTA SELATAN, DAERAH KHUSUS IBUKOTA JAKARTA 12850","dist_m":746}},{"type":"Feature","geometry":{"type":"Point","coordinates":[106.844397,-6.212623]},"properties":{"station":"Manggarai","category":"jasa","nama":"BENGKEL MOBIL 24 JAM","alamat":"JL. MINANGKABAU TIMUR, RT.6/RW.8, PS. MANGGIS, KECAMATAN SETIABUDI, KOTA JAKARTA SELATAN, DAERAH KHUSUS IBUKOTA JAKARTA 12970","dist_m":696}},{"type":"Feature","geometry":{"type":"Point","coordinates":[106.844117,-6.211142]},"properties":{"station":"Manggarai","category":"jasa","nama":"PT. FIELD FORCE INDONESIA","alamat":"JL. KOTA GEDANG NO.28, RT.1 RW.1, PASAR MANGGIS, SETIABUDI, SOUTH JAKARTA CITY, JAKARTA 12970","dist_m":681}},{"type":"Feature","geometry":{"type":"Point","coordinates":[106.843869,-6.208338]},"properties":{"station":"Manggarai","category":"jasa","nama":"PEGADAIAN CABANG PASAR RUMPUT","alamat":"JL. SULTAN AGUNG NO.1, RT.1/RW.10, PS. MANGGIS, KECAMATAN SETIABUDI, KOTA JAKARTA SELATAN, DAERAH KHUSUS IBUKOTA JAKARTA 12970","dist_m":730}},{"type":"Feature","geometry":{"type":"Point","coordinates":[106.843692,-6.212936]},"properties":{"station":"Manggarai","category":"jasa","nama":"SICEPAT EKSPRES SETIABUDI 2","alamat":"JL. MINANGKABAU BARAT NO.44 1, RT.1/RW.1, PS. MANGGIS, KECAMATAN SETIABUDI, KOTA JAKARTA SELATAN, DAERAH KHUSUS IBUKOTA JAKARTA 12820","dist_m":781}},{"type":"Feature","geometry":{"type":"Point","coordinates":[106.843624,-6.20822]},"properties":{"station":"Manggarai","category":"jasa","nama":"KANTOR NOTARIS KEZIA JANTY LEGA, S.H, M.KN.","alamat":"JL. SULTAN AGUNG NO.58, RT.1/RW.10, PASAR MANGGIS, SETIABUDI, SOUTH JAKARTA CITY, JAKARTA 12970","dist_m":760}},{"type":"Feature","geometry":{"type":"Point","coordinates":[106.827119,-6.208515]},"properties":{"station":"Sudirman","category":"jasa","nama":"APIQUE LAUNDRY","alamat":"JL. SETIA BUDI TENGAH NO.20 1, RT.1/RW.1, KUNINGAN, SETIA BUDI, KECAMATAN SETIABUDI, KOTA JAKARTA SELATAN, DAERAH KHUSUS IBUKOTA JAKARTA 12910","dist_m":789}},{"type":"Feature","geometry":{"type":"Point","coordinates":[106.828749,-6.206675]},"properties":{"station":"Sudirman","category":"jasa","nama":"ECODENICO LAUNDRY","alamat":"JL. H. R. RASUNA SAID NO.4, KUNINGAN, SETIA BUDI, KECAMATAN SETIABUDI, KOTA JAKARTA SELATAN, DAERAH KHUSUS IBUKOTA JAKARTA 12910","dist_m":750}},{"type":"Feature","geometry":{"type":"Point","coordinates":[106.828651,-6.206945]},"properties":{"station":"Sudirman","category":"jasa","nama":"RAJAWALI PLACE GATE 2","alamat":"JL. SETIA BUDI UTARA RAYA 5, RT.5/RW.1, KUNINGAN, SETIA BUDI, KECAMATAN SETIABUDI, KOTA JAKARTA SELATAN, DAERAH KHUSUS IBUKOTA JAKARTA 12910","dist_m":761}},{"type":"Feature","geometry":{"type":"Point","coordinates":[106.828095,-6.206602]},"properties":{"station":"Sudirman","category":"jasa","nama":"PT EAGLE HIGH PLANTATIONS TBK (HEAD OFFICE)","alamat":"JL. H. R. RASUNA SAID, KUNINGAN, SETIA BUDI, SETIABUDI, SOUTH JAKARTA CITY, JAKARTA 12910","dist_m":690}},{"type":"Feature","geometry":{"type":"Point","coordinates":[106.827945,-6.207974]},"properties":{"station":"Sudirman","category":"jasa","nama":"NINJA XPRESS","alamat":"JL. MENTENG WADAS TIMUR NO.9, RT.006/RW.002, KUNINGAN, PS. MANGGIS, KECAMATAN SETIABUDI, KOTA JAKARTA SELATAN, DAERAH KHUSUS IBUKOTA JAKARTA","dist_m":791}},{"type":"Feature","geometry":{"type":"Point","coordinates":[106.822613,-6.207056]},"properties":{"station":"Sudirman","category":"jasa","nama":"GOOD HANDS HEALTHY MASSAGE (HOME SPA)","alamat":"JL. SETIA BUDI BARAT VII NO.3, KUNINGAN, SETIA BUDI, KECAMATAN SETIABUDI, KOTA JAKARTA SELATAN, DAERAH KHUSUS IBUKOTA JAKARTA 12910","dist_m":527}},{"type":"Feature","geometry":{"type":"Point","coordinates":[106.822605,-6.209448]},"properties":{"station":"Sudirman","category":"jasa","nama":"PRUDENTIAL TOWER","alamat":"JL. JENDERAL SUDIRMAN NO.KAV 79, RT.2/RW.2, KUNINGAN, SETIA BUDI, KECAMATAN SETIABUDI, KOTA JAKARTA SELATAN, DAERAH KHUSUS IBUKOTA JAKARTA 12910","dist_m":790}},{"type":"Feature","geometry":{"type":"Point","coordinates":[106.822596,-6.208374]},"properties":{"station":"Sudirman","category":"jasa","nama":"AGEN JNE SUDIRMAN PLAZA-INDOFOOD TOWER","alamat":"JL. JENDRAL SUDIRMAN NO.KAV.76-78 RT.5/RW.RT.4, RT.2/RW.2, KUNINGAN, KARET SEMANGGI, KECAMATAN SETIABUDI, KOTA JAKARTA SELATAN, DAERAH KHUSUS IBUKOTA JAKARTA 12910","dist_m":672}},{"type":"Feature","geometry":{"type":"Point","coordinates":[106.822523,-6.207954]},"properties":{"station":"Sudirman","category":"jasa","nama":"PT. INDOFOOD CBP SUKSES MAKMUR, TBK.","alamat":"JL. JENDERAL SUDIRMAN, RT.2/RW.2, DAERAH KHUSUS IBUKOTA JAKARTA 12910","dist_m":627}},{"type":"Feature","geometry":{"type":"Point","coordinates":[106.824528,-6.208302]},"properties":{"station":"Sudirman","category":"jasa","nama":"FLYING PHOENIX LAUNDRY PAKIS RESIDENCE","alamat":"JL. SETIA BUDI BARAT NO.8, KUNINGAN, SETIA BUDI, SETIABUDI, JAKARTA, 12910","dist_m":666}},{"type":"Feature","geometry":{"type":"Point","coordinates":[106.82447,-6.208031]},"properties":{"station":"Sudirman","category":"jasa","nama":"AUGUSTINUS HUTAJULU & REKAN - ADVOKAT DAN KONSULTAN HUKUM","alamat":"JL. SETIA BUDI BARAT NO.10, RT.3/RW.3, KUNINGAN, SETIA BUDI, KECAMATAN SETIABUDI, KOTA JAKARTA SELATAN, DAERAH KHUSUS IBUKOTA JAKARTA 12910","dist_m":635}},{"type":"Feature","geometry":{"type":"Point","coordinates":[106.824347,-6.207511]},"properties":{"station":"Sudirman","category":"jasa","nama":"LAUNDRY PERKILO PREMIUM SETIABUDI","alamat":"JL. SETIA BUDI BARAT NO.14, KUNINGAN, SETIA BUDI, KECAMATAN SETIABUDI, KOTA JAKARTA SELATAN, DAERAH KHUSUS IBUKOTA JAKARTA 12910","dist_m":576}},{"type":"Feature","geometry":{"type":"Point","coordinates":[106.824024,-6.203775]},"properties":{"station":"Sudirman","category":"jasa","nama":"PT. LANDMARK BUILDING","alamat":"LANDMARK CENTRE LANTAI 9, JALAN JEND SUDIRMAN KAV 1, SETIABUDI, RT.3/RW.3, KUNINGAN, SETIA BUDI, KECAMATAN SETIABUDI, KOTA JAKARTA SELATAN, DAERAH KHUSUS IBUKOTA JAKARTA 12910","dist_m":164}}]}